,name,address,latitude,longitude
0,(주)제주해양레저 투명카약,제주특별자치도 제주시 애월읍 애월리 2490-1,33.462353,126.31049
1,1100고지(휴게소),제주특별자치도 서귀포시 색달동 산 1-3,33.339912,126.43682
2,1100고지습지,제주특별자치도 서귀포시 색달동 산 1-2,33.3575,126.46292
3,1112도로,제주특별자치도 제주시 봉개동 산 78-1,33.439373,126.62845
4,4·3해원방사탑,제주특별자치도 제주시 일도2동 837-20,33.50547,126.53451
5,5.16도로숲터널,제주특별자치도 서귀포시 남원읍 신례리 산 2-1,33.36869,126.62519
6,9.81 파크,제주특별자치도 제주시 애월읍 어음리 산 131,33.3928867,126.3586318
7,9연대 본부 옛터,제주특별자치도 서귀포시 대정읍 상모리 3374,33.229523,126.26302
8,SM 디지털아트 뮤지엄,제주특별자치도 제주시 애월읍 신엄리 2768-7,33.4770982,126.3602203
9,THE WE,제주특별자치도 서귀포시 회수동 30,33.2862186,126.4442655
10,가마오름,제주특별자치도 제주시 한경면 청수리 1166,33.3056558,126.24933799999997
11,가마오름 진지동굴,제주특별자치도 제주시 한경면 청수리 1166,33.30579926642058,126.24680599468991
12,가메오름,제주특별자치도 제주시 애월읍 봉성리 산 125,33.36623487350416,126.35716014766842
13,가문이오름(감은이오름),제주특별자치도 제주시 구좌읍 송당리 산 297,33.42202072057899,126.74959276699224
14,가새기오름,제주특별자치도 제주시 오라3동 2848,33.48929,126.503555
15,가세오름,제주특별자치도 서귀포시 표선면 토산리 산2,33.33146,126.78151
16,가파도,제주특별자치도 서귀포시 대정읍 가파리,33.170017,126.271515
17,가파도 마라도 정기여객선,제주특별자치도 서귀포시 대정읍 하모리 646-20,33.2100551,126.2585746
18,가파초등학교 마라분교장,제주특별자치도 서귀포시 대정읍 가파리 696,33.119247,126.26694
19,각시바우오름,제주특별자치도 서귀포시 호근동 2112,33.2767541,126.52702879999993
20,간세공방,제주특별자치도 서귀포시 서귀동 316-1,33.247406,126.55873
21,감귤박물관,제주특별자치도 서귀포시 신효동 산 4,33.271523,126.60766
22,감귤상웨빵 체험,제주특별자치도 서귀포시 남원읍 하례리 677,33.3420367,126.5884214
23,감수굴 밭담길,제주특별자치도 제주시 구좌읍 평대리 584-1,33.5243749,126.8423829
24,갑선이오름,제주특별자치도 서귀포시 표선면 가시리 산 2,33.3616,126.78106
25,갑자기 히어로즈 벽화길,제주특별자치도 제주시 애월읍 금성리 569,33.4468277,126.2995018
26,갓전시관,제주특별자치도 제주시 조천읍 남조로 1904,33.436024,126.671844
27,강병대교회,제주특별자치도 서귀포시 대정읍 상모리 3846,33.22652,126.25722
28,강정어촌계,제주특별자치도 서귀포시 강정동 4964,33.2275619,126.4748154
29,강정천유원지,제주특별자치도 서귀포시 강정통물로 (강정동),33.233673,126.49047
30,강창학 종합경기장,제주특별자치도 서귀포시 중산간서로 95,33.26065,126.49956
31,개오름,제주특별자치도 서귀포시 표선면 성읍리 2974,33.42347314801973,126.77172227409665
32,개오리오름,제주특별자치도 제주시 봉개동,33.42232463212309,126.61737574118649
33,갤러리2 중선농원,제주특별자치도 제주시 월평동 1348-3,33.478135,126.57017
34,갯깍주상절리,제주특별자치도 서귀포시 상예동 975-3,33.2409655,126.39588219999996
35,거린오름 (북오름),제주특별자치도 서귀포시 안덕면 동광리 산 94,33.302387,126.33193
36,거문오름(UNESCO 세계자연유산),제주특별자치도 제주시 조천읍 선흘리 478,33.45307315049369,126.72350785986328
37,거문오름승마체험장,제주특별자치도 제주시 조천읍 선흘리 2107-2,33.45935559999999,126.7033584
38,거믄여해안경승지,제주특별자치도 서귀포시 516로,33.244373,126.58488
39,거슨새미오름,제주특별자치도 제주시 구좌읍 송당리 산 145,33.450573,126.759186
40,거인의 정원,제주특별자치도 제주시 아라1동 2853-1,33.4718426,126.5353245
41,거친오름,제주특별자치도 제주시 명림로 520 (봉개동),33.445274,126.61945
42,건강과성박물관,제주특별자치도 서귀포시 안덕면 감산리 1736,33.2550314,126.3452068
43,건강장수마을 산양리 농어촌체험마을,제주시 한경면 청수리 3256-3,33.29395,126.23304
44,걸매생태공원,제주특별자치도 서귀포시 남성로 (서홍동),33.252052,126.554306
45,걸매예술마을,제주특별자치도 서귀포시 서홍동 470,33.249985,126.55515
46,"걸서악 (동걸세, 걸세오름, 걸시오름)",제주특별자치도 서귀포시 남원읍 하례로 393,33.281223,126.66428
47,"걸서악(서걸세,걸세오름)",제주특별자치도 서귀포시 남원읍 하례리 산 127-1,33.3420367,126.58842140000002
48,걸서악오름,제주특별자치도 서귀포시 남원읍 하례리 124,33.3420367,126.5884214
49,걸시오름,제주특별자치도 제주시 연동 산 150,33.41133,126.505455
50,검멀레동굴,제주특별자치도 제주시 우도면,33.49634,126.96676
51,검멀레해변,제주특별자치도 제주시 우도면 우도해안길,33.49698480960003,126.96860272497565
52,게우지코지,제주특별자치도 서귀포시 하효동,33.2438505,126.6186661
53,고근산(고공산),제주특별자치도 서귀포시 서호동 1302-1,33.26679698325026,126.5137438068848
54,고내리 다락쉼터,제주특별자치도 제주시 애월읍 고내리 463,33.4694833,126.3407482
55,고내리포구,제주특별자치도 제주시 애월읍 고내리,33.46709,126.33758
56,"고내봉(고내오름,고니오름,망오름)",제주특별자치도 제주시 애월읍 고내리 산 3-1,33.460022,126.34064
57,고마워토토 아뜰리에,제주특별자치도 제주시 애월읍 상귀리 152,33.4699704,126.4134769
58,고사리숲,제주특별자치도 제주시 애월읍 광령리 2535  제주관광대학교 내 창업보육센터 본관 315호,33.4487267,126.4339396
59,고산일과해안도로,제주특별자치도 서귀포시 대정읍 영락리 2169,33.279945,126.16963
60,고살리숲길,제주특별자치도 서귀포시 남원읍 하례리 산 54-2,33.316488643194226,126.59754091065065
61,고흐의 정원,제주특별자치도 서귀포시 성산읍 삼달리 1185-2,33.3726076,126.855539
62,곤물,제주특별자치도 서귀포시 안덕면 화순리 1190-1,33.2518943,126.3328875
63,곤흘동(곤을동) 마을터,제주특별자치도 제주시 화북1동 4438,33.521984,126.55739
64,"골머리 (洞山, 笏頭岳, 아흔아홉골)",제주특별자치도 제주시 노형동 산 20,33.508095,126.468593
65,골프탕탕,제주특별자치도 서귀포시 안덕면 산록남로 762번길 71,33.305763,126.38885
66,공천포,제주특별자치도 서귀포시 남원읍 신례리,33.26769,126.645996
67,공천포구,제주특별자치도 서귀포시 남원읍 신례리,33.26312,126.64165
68,곶자왈,제주특별자치도 서귀포시 대정읍 신평리,33.28449,126.27018
69,"과오름(큰오름, 샛오름, 말젯오름)",제주특별자치도 제주시 애월읍 곽지리 산 1,33.44657762349735,126.32388009311524
70,곽지레저 & 서프나우,제주특별자치도 제주시 애월읍 곽지리 1565-13,33.4491254,126.3040889
71,곽지패총,제주특별자치도 제주시 애월읍 곽지리 2043-1,33.44588,126.30714
72,곽지해수욕장,제주특별자치도 제주시 애월읍 애월원당길 (곽지리),33.45122,126.3058
73,곽지해수욕장야영장,제주특별자치도 제주시 애월읍 곽지리 1565,33.450752,126.30563
74,관덕정,제주특별자치도 제주시 삼도2동 983-1,33.513355,126.52145
75,관음사,제주특별자치도 제주시 아라1동 387,33.423782,126.55818
76,관음사 군 주둔지 옛터,제주특별자치도 제주시 아라1동 387,33.426136,126.56269
77,관음사 템플스테이,제주시 산록북로 660,33.42172,126.558815
78,광령귤나무,제주특별자치도 제주시 애월읍 광령리 1165-1,33.459007,126.43912
79,"광이오름 (괭이오름, 肝列岳)",제주특별자치도 제주시 연동 산 62,33.46847099288404,126.49506376190186
80,광치기해변,제주특별자치도 서귀포시 성산읍 고성리 224-18,33.452452755358465,126.92458139419557
81,교래자연휴양림,제주특별자치도 제주시 조천읍 교래리 산 95,33.436817,126.66685
82,구엄리돌염전,제주특별자치도 제주시 애월읍 구엄리 609-1,33.482887,126.37733
83,구엄포구,제주특별자치도 제주시 애월읍 구엄리,33.479736,126.381935
84,구좌 하도어촌계,제주특별자치도 제주시 구좌읍 하도리 22-10,33.5200922,126.9041337
85,구좌해안로,제주특별자치도 제주시 구좌읍 구좌해안로,33.55702,126.727806
86,국립제주박물관,제주특별자치도 제주시 건입동 261,33.5139974,126.5489702
87,"군산(군산오름,코메오름)",제주특별자치도 서귀포시 안덕면 창천리 564,33.25584,126.370255
88,굴동포구,제주특별자치도 제주시 구좌읍 하도리,33.514984,126.88177
89,굿다이버,제주특별자치도 서귀포시 강정동 1528-3 ,33.2615636,126.49446999999998
90,궁대오름(궁대악),제주특별자치도 서귀포시 성산읍 수산리 4711-1,33.4405616,126.8220889
91,귀덕연대,제주특별자치도 제주시 한림읍 귀덕리 1118,33.4421307,126.2934016
92,귀빈사,제주특별자치도 제주시 구좌읍 송당리 2438,33.4429016,126.7613249
93,귤밭76번지,제주특별자치도 서귀포시 안덕면 상창리 906,33.283054,126.365265
94,귤빛캠핑장,제주특별자치도 제주시 조천읍 대흘리 172,33.504955,126.67441
95,그랑블루 요트투어,제주특별자치도 서귀포시 대포동 2367-1,33.238754,126.439644
96,그랑블루호(선상낚시),제주특별자치도 서귀포시 남원읍 위미리 1881-2,33.2746809,126.6626636
97,그리스신화박물관 / 트릭아이미술관,제주특별자치도 제주시 한림읍 금악리 산 30-12,33.3659432,126.35644
98,그린크루즈(산방산유람선),제주특별자치도 서귀포시 안덕면 화순리 636-15,33.236904,126.33513
99,금능석물원,제주특별자치도 제주시 한림읍 한림로 176,33.38459,126.226875
100,금능포구,제주특별자치도 제주시 한림읍 금능리,33.359856,126.24607
101,금능해수욕장,제주특별자치도 제주시 한림읍 금능리 2036-1,33.390003,126.23591
102,금덕무환자나무및팽나무군락,제주특별자치도 제주시 애월읍 유수암리 1920,33.441765,126.40065
103,금룡사,제주특별자치도 제주시 구좌읍 김녕리 1145-49,33.5398407,126.746583
104,금룡사 템플스테이,제주특별자치도 제주시 구좌읍 김녕로 148-11,33.55384,126.75357
105,금붕사,제주특별자치도 제주시 구좌읍 하도리 994,33.5011847,126.8887876
106,금성포구,제주특별자치도 제주시 애월읍 금성리 573-1,33.44681,126.29828
107,금악오름(왕매),제주특별자치도 제주시 한림읍 금악리 산 1-1,33.3529941,126.31394060000002
108,기독교순례길 1코스(순종의길),제주특별자치도 제주시 애월읍 금성리 436-3,33.446327,126.30273
109,기독교순례길 2코스(순교의길),제주특별자치도 제주시 한림읍 협재리 1791,33.39475,126.2431
110,기독교순례길 3코스(사명의길),제주특별자치도 제주시 한경면 조수리 331-1,33.336758,126.23075
111,기독교순례길 4코스(화해의길),제주특별자치도 서귀포시 대정읍 안성리 1639,33.251038,126.27966
112,김경숙해바라기농장,제주특별자치도 제주시 회천동 391,33.47736,126.62767
113,김녕 월정 지질트레일,제주특별자치도 제주시 구좌읍 김녕리 497-1,33.5562,126.76165
114,김녕 청굴물,제주특별자치도 제주시 구좌읍 김녕리 1296,33.5577758,126.7514764
115,김녕금속공예벽화마을,제주특별자치도 제주시 구좌읍 김녕리 4026,33.557953,126.74662
116,김녕사굴,제주특별자치도 제주시 구좌읍 덕천리 201-4,33.5011366,126.77422490000004
117,김녕요트투어,제주특별자치도 제주시 구좌읍 김녕리 4212-1,33.5582139,126.7373381
118,김녕항,제주특별자치도 제주시 구좌읍 김녕리 4074-2,33.558033,126.74019
119,김녕해수욕장,제주특별자치도 제주시 구좌읍 김녕리 4330,33.557926,126.75998
120,김녕해수욕장야영장,제주특별자치도 제주시 구좌읍 김녕리 497-4,33.55699,126.7602
121,김녕해안도로,제주특별자치도 제주시 구좌읍 김녕리,33.55654,126.7603
122,김만덕객주,제주특별자치도 제주시 건입동 984-41,33.5164883,126.5322757
123,김만덕기념관,제주특별자치도 제주시 건입동 1164,33.5157,126.53032
124,김영갑갤러리 두모악,제주특별자치도 서귀포시 성산읍 삼달리 437-5,33.372063,126.85418
125,김영수도서관,제주특별자치도 제주시 삼도이동 17-3,33.5149598,126.52170419999993
126,까끄래기오름,제주시 조천읍 교래리 128,33.4276176,126.66658030000008
127,까망고띠,제주특별자치도 제주시 조천읍 선흘리 2040-1,33.4848623,126.7001912
128,꽃썸,제주특별자치도 서귀포시 안덕면 동광리 950-3,33.309093,126.339615
129,나바론절벽,제주특별자치도 제주시 추자면 영흥리 산 19,33.956413,126.29398
130,낙선동 4.3,제주특별자치도 제주시 조천읍 선흘리 2734-5,33.480583,126.709526
131,낙천리아홉굿의자마을,제주특별자치도 제주시 한경면 낙천리 1916,33.32757,126.22681
132,낙타트래킹,제주특별자치도 서귀포시 표선면 성읍리 2684,33.40256,126.77849
133,남내소,제주특별자치도 서귀포시 남원읍 하례리,33.3420367,126.5884214
134,남두연대,제주특별자치도 제주시 애월읍 신엄리 2780-1,33.479195,126.35852
135,남문지못,제주특별자치도 서귀포시 대정읍 인성리 392,33.24656,126.276405
136,남수각 하늘길 벽화거리,제주특별자치도 제주시 일도1동 1100-12,33.5114291,126.5278268
137,남원 위미2리 어촌계,제주특별자치도 서귀포시 남원읍 위미리 1662-1,33.274857,126.6695033
138,남원종합경기장,제주특별자치도 서귀포시 남원읍 태위로 551-27,33.278313,126.70406
139,남원큰엉해변,제주특별자치도 서귀포시 남원읍 태위로 522-17,33.27338,126.70375
140,납읍난대림 금산공원,제주특별자치도 제주시 애월읍 납읍리 14 57,33.432728,126.33036
141,내창트레킹,제주특별자치도 서귀포시 남원읍 하례리 677,33.3420367,126.5884214
142,너븐숭이 4.3기념관,제주특별자치도 제주시 조천읍 북촌리 1599,33.545986,126.68877
143,넥슨컴퓨터박물관,제주특별자치도 제주시 노형동 86,33.4862871,126.428576
144,노루생태관찰원,제주특별자치도 제주시 봉개동 산 51-2,33.4087482,126.635052
145,노리매공원,제주특별자치도 서귀포시 대정읍 구억리 654-1,33.28257,126.287544
146,노을승마장,제주특별자치도 제주시 우도면 연평리 2358,33.51140616037434,126.94383286499021
147,노을해안로,제주특별자치도 서귀포시 대정읍 일과리 1424-1,33.24254,126.22441
148,녹산로유채꽃길,제주특별자치도 서귀포시 표선면 가시리 산 87-15,33.39823,126.71993
149,녹차미로공원,제주특별자치도 서귀포시 색달동 산 50,33.290375,126.42282
150,논짓물,제주특별자치도 서귀포시 하예동,33.237144,126.3893
151,농개,제주특별자치도 서귀포시 성산읍 신산리 561-1,33.38036669439942,126.8815193505402
152,높은오름,제주특별자치도 제주시 구좌읍 송당리 산 213-1,33.45761407222886,126.79309050654297
153,누운오름(한림읍),제주특별자치도 제주시 한림읍 금악리 188-2,33.36381,126.32422
154,누웨마루거리(구 바오젠),제주특별자치도 제주시 연동 273-1,33.48774,126.49034
155,눈물의십자가,제주특별자치도 제주시 추자도,33.954967,126.341774
156,느지리오름(망오름),제주특별자치도 제주시 한림읍 상명리 산 5,33.3653429,126.26137670000003
157,다끄네포구(용담포구),제주특별자치도 제주시 용담3동,33.51841,126.500786
158,다랑쉬굴,제주특별자치도 제주시 구좌읍 세화리 2608-6,33.469715,126.83181
159,다랑쉬마을,제주특별자치도 제주시 구좌읍 세화리 2668-2,33.470287,126.8238
160,다랑쉬오름(월랑봉),제주특별자치도 제주시 구좌읍 세화리 6,33.476660701113616,126.82143522460933
161,다려도,제주특별자치도 제주시 조천읍 북촌리,33.555916,126.69623
162,단산(바굼지오름),제주특별자치도 서귀포시 안덕면 향교로 165-23,33.2399744,126.2891838
163,단산과 방사탑,제주특별자치도 제주시 조천읍 신흥리 59-8,33.548756,126.65135
164,닭머르해안길,제주특별자치도 제주시 조천읍 신촌리 2408-1,33.537785,126.61332
165,답다니탑망대,제주특별자치도 제주시 우도면 연평리 798,33.524593,126.952644
166,"당산봉(당오름,차귀오름)",제주특별자치도 제주시 한경면 고산리 산 15,33.307696681946,126.17266934708255
167,당오름,제주특별자치도 제주시 구좌읍 송당리 산 199-1,33.467194,126.77773
168,당오름(안덕면),제주특별자치도 서귀포시 안덕면 동광리 산 68-1,33.332428,126.3365
169,당오름(한경면),제주특별자치도 제주시 한경면 용수리 산 18,33.308254,126.17365
170,당케산물(당케포구),제주특별자치도 서귀포시 표선면 표선리,33.322533,126.82287
171,대록산(큰사슴이),제주특별자치도 서귀포시 표선면 가시리 산 68-3,33.330276445260665,126.78289507412114
172,대림리선돌,제주특별자치도 제주시 한림읍 대림리,33.424404,126.27907
173,대병악,제주특별자치도 서귀포시 안덕면 한창로,33.307426,126.36823
174,"대수산봉(큰물뫼,물미오름)",제주특별자치도 서귀포시 성산읍 고성리 2040-1,33.43850618122979,126.90189631271971
175,대수포구,제주특별자치도 제주시 한림읍 수원리 1027-7,33.426956,126.27057
176,"대왕산 (왕뫼, 왕메, 왕미)",제주특별자치도 서귀포시 성산읍 수산리 1429,33.457447,126.87257
177,대유ATV수렵사격랜드,제주특별자치도 서귀포시 상예동 144,33.2775412,126.3953648
178,대장금촬영지(제주민속촌),제주특별자치도 서귀포시 표선면 표선리 40-1,33.322346,126.841484
179,대정면 4.3사건 위령비,제주특별자치도 서귀포시 대정읍 하모리 1224,33.22536,126.24849
180,대정해변 (하모해변),제주특별자치도 서귀포시 대정읍 하모리,33.226463,126.25283
181,대정향교,제주특별자치도 서귀포시 안덕면 사계리 3126-1,33.23958,126.2884
182,대정현역사자료전시관,제주특별자치도 서귀포시 대정읍 상모리 3862-1,33.2251845,126.2563472
183,대천이오름,제주특별자치도 제주시 조천읍 선흘리 산 154,33.4777041,126.7135515
184,대평포구,제주특별자치도 서귀포시 안덕면 감산리 98 2-2,33.2371,126.36139
185,대포포구,제주특별자치도 서귀포시 대포동,33.243515,126.43522
186,대한민국최남단기념비/ 마라도 기념비,제주특별자치도 서귀포시 대정읍 가파리 583-9,33.114143,126.268616
187,더 플래닛 (THE PLANET),제주특별자치도 서귀포시 색달동 2558,33.2814107,126.4111118
188,더데오름(가가악),제주특별자치도 서귀포시 상예동 4489-1 일대,33.277172,126.37349
189,"더럭초등학교(구, 더럭분교)",제주특별자치도 제주시 애월읍 하가리 1580-1,33.453457,126.345276
190,더마카트,제주특별자치도 제주시 한림읍 월림리 산 8,33.355522,126.24203
191,더마파크,제주특별자치도 제주시 한림읍 월림7길 155,33.353992,126.24263
192,덕천리 팔자 좋아 길,제주특별자치도 제주시 구좌읍 덕천리 ,33.4827438,126.7464684
193,"도너리오름(돌오름,돝내린오름,골체오름)",제주특별자치도 서귀포시 안덕면 상천리,33.336950720198146,126.42988003876951
194,도두동 무지개 해안도로,제주특별자치도 제주시 도두1동,33.5093109,126.4739327
195,도두봉,제주특별자치도 제주시 도두동 산 1,33.50764,126.4686
196,도두항,제주특별자치도 제주시 도두1동 2605-8,33.507725,126.466576
197,도두해안도로,제주특별자치도 제주시 도두2동 706-3,33.51039,126.482445
198,도령모루,제주특별자치도,33.49636,126.493835
199,도리미오름,제주특별자치도 제주시 구좌읍 송당리 산 255-1,33.431633,126.77203
200,도순다원,제주특별자치도 서귀포시 도순동 1-1,33.273037,126.48306
201,독자봉,제주특별자치도 서귀포시 성산읍 신산리 1785,33.3877114,126.85417740000003
202,돈내코,제주특별자치도 서귀포시 516로 (상효동),33.301105,126.577385
203,돈내코유원지,제주특별자치도 서귀포시 상효동 1460,33.30042,126.584206
204,돈대산,제주특별자치도 제주시 추자면 예초리 산 67-1,33.94892872614782,126.32073519672849
205,돈대산산림휴양산책로,제주특별자치도 제주시 추자면 예초리 산 67-1,33.949707,126.32238
206,"돈두미오름(돈도름,돈대미)",제주특별자치도 서귀포시 대정읍 영락리 1450,33.2562288,126.2115638
207,돌고래하우스(캠핑장),제주특별자치도 서귀포시 강정동 798,33.232742,126.4995
208,돌미오름,제주특별자치도 서귀포시 성산읍 수산리 4393-2,33.43826,126.82947
209,돔박이오름 (동박악),제주특별자치도 서귀포시 안덕면 광평리 산 89,33.3394248,126.36417600000004
210,돔배오름,제주특별자치도 제주시 조천읍 교래리 산 64,33.42868722429244,126.66855924714662
211,돔베낭골,제주특별자치도 서귀포시 호근동,33.238617,126.53255
212,돔베낭길,제주특별자치도 서귀포시 호근동 1619,33.239983,126.53188
213,동거문이오름,제주특별자치도 제주시 구좌읍 종달리 산 70,33.449257,126.806145
214,동검은이오름(거미오름),제주특별자치도 제주시 구좌읍 종달리 산 70,33.44907,126.80516
215,동계 정온 유허비,제주특별자치도 서귀포시 대정읍 안성리,33.250454,126.27403
216,동굴의 다원 다희연,제주특별자치도 제주시 조천읍 선흘리 2019-3 캐릭파크 내,33.4793016,126.700604
217,동귀방파제,제주특별자치도 제주시 애월읍 하귀리,33.4622313,126.4171977
218,동백동산,제주특별자치도 제주시 조천읍 선흘리 산 14,33.512349655007505,126.70726440206909
219,동백마을,제주특별자치도 서귀포시 남원읍 한신로531번길 22-1,33.320435,126.74517
220,동백포레스트,서귀포시 남원읍 신례리 1767,33.299995,126.6297939
221,동복환해장성,제주특별자치도 제주시 구좌읍 동복리,33.53544,126.71806
222,동산농원 딸기체험장,제주특별자치도 제주시 한경면 저지리 1448-2,33.333553,126.24605
223,동알오름,제주특별자치도 서귀포시 대정읍 상모리 153,33.207508,126.28816
224,동일리포구,제주특별자치도 서귀포시 대정읍 동일리,33.225437,126.24133
225,돛오름,제주특별자치도 제주시 구좌읍 송당리 산 3,33.499622,126.53119
226,돝오름(돗오름),제주특별자치도 제주시 구좌읍 송당리 산 3,33.481293,126.8003
227,두맹이골목,제주특별자치도 제주시 동문로16길 17-4,33.51202,126.53499
228,두산봉(말미오름),제주특별자치도 서귀포시 성산읍 시흥리 산 1-5,33.47950858344703,126.88414743068847
229,둔지봉,제주특별자치도 제주시 구좌읍 한동리 산 40,33.50136,126.79464
230,"뒤굽은이 (뒤꾸부니, 뒤곱은이)",제주특별자치도 제주시 구좌읍 중산간동로,33.466513266982204,126.77778283127441
231,뒤굽은이오름,제주특별자치도 제주시 구좌읍 송당리 산 36,33.464650000654196,126.74893597280277
232,드라마월드,제주특별자치도 제주시 애월읍 봉성리 4556,33.352234,126.36064
233,들렁모루 산책길,제주특별자치도 서귀포시 서홍동 2437,33.282448,126.54274
234,"들레오름 (月坪峰, 月來岳, 月下岳)",제주특별자치도 제주시 월평동 657,33.45935289671542,126.57970726668702
235,들리오름 (들위오름),제주특별자치도 제주시 오등동 158,33.428942825489685,126.54306314819337
236,등머을레져,제주특별자치도 제주시 우도면 연평리 1737-13,33.49268,126.95172
237,디스커버제주,제주특별자치도 서귀포시 대포동 760-3,33.2435151,126.4352216
238,따라비오름,제주특별자치도 서귀포시 표선면 가시리 산 62,33.389156,126.75325
239,라신동,제주특별자치도 제주시 한림읍 귀덕리,33.431778,126.290634
240,라온골프클럽,제주특별자치도 제주시 한경면 저지리 산 18,33.3448687,126.2782452
241,라온승마클럽,제주특별자치도 제주시 한림읍 월림7길 155,33.355453,126.2419
242,라이트 아트 페스타,제주특별자치도 제주시 조천읍 선흘리 600-6,33.4868649,126.7061249
243,레더한,제주특별자치도 서귀포시 남원읍 태흥리 1760-13,33.2922889,126.7393618
244,렛츠런파크,제주특별자치도 제주시 애월읍 평화로 2144,33.40782,126.39421
245,렛츠런팜 양귀비꽃,제주특별자치도 제주시 조천읍 남조로 1660,33.41699,126.681465
246,렛츠런팜제주,제주특별자치도 제주시 조천읍 교래리 산 25-2,33.41699,126.681465
247,로로 요가,제주특별자치도 제주시 조천읍 함덕리 1008,33.5437905,126.6688441
248,로봇스퀘어,제주특별자치도 제주시 구좌읍 한동리 1294,33.539986,126.83099
249,마라도(마라해양도립공원),제주특별자치도 서귀포시 대정읍 가파리 600,33.1170928491147,126.26747322880556
250,마라도관광쉼터,제주특별자치도 서귀포시 대정읍 가파리 583-9,33.114143,126.268616
251,마라도기원정사,제주특별자치도 서귀포시 대정읍 가파리 736,33.115997,126.26655
252,마라도등대,제주특별자치도 서귀포시 대정읍 가파리 642,33.116715436368224,126.26951170765687
253,마라도성당,제주특별자치도 서귀포시 대정읍 가파리 662,33.11572696672756,126.269173749321
254,마라도잠수함,제주특별자치도 서귀포시 안덕면 형제해안로 13,33.22783,126.305435
255,마린파크,제주특별자치도 서귀포시 안덕면 화순중앙로 132,33.240707,126.334724
256,마방목지,제주특별자치도 제주시 용강동,33.42824,126.60599
257,마복이오름,제주특별자치도 서귀포시 안덕면 상천리 산 83,33.31959746566287,126.39519611166997
258,마오름(한경),제주특별자치도 제주시 한경면 저지리 산 56,33.33803,126.24381
259,막숙,제주특별자치도 서귀포시 법환동 287-3,33.237775,126.5157941
260,만벵듸 공동장지,제주특별자치도 제주시 한림읍 금악리 2754,33.372234,126.2959
261,만장굴,제주특별자치도 제주시 구좌읍 월정리 산 41-5,33.5548185,126.7969015
262,말찻,제주특별자치도 제주시 조천읍 교래3길,33.434742,126.67746
263,맛있는 철학자(태반의땅제주),제주특별자치도 서귀포시 토평동 1276-1,33.2844099,126.5796743
264,망장포,제주특별자치도 서귀포시 남원읍 하례리 64-10,33.3420367,126.5884214
265,매오름,제주특별자치도 서귀포시 표선면 표선리 산 2,33.31865,126.81405
266,맬튼개 갯담,제주특별자치도 제주시 구좌읍 하도리 3314-2,33.520626,126.865746
267,머체오름 (마체오름),제주특별자치도 서귀포시 남원읍 수망리 203-1,33.368948428146425,126.69286305869139
268,머체왓숲길 영농조합법인,제주특별자치도 서귀포시 남원읍 한남리 1622-3,33.3301649,126.6789687
269,메이즈랜드,제주특별자치도 제주시 구좌읍 평대리 3322,33.48875,126.80093
270,명월성지,제주특별자치도 제주시 한림읍 명월리 2236,33.40050940734815,126.26125579154052
271,명월팽나무군락,제주특별자치도 제주시 한림읍 명월리 1767-1,33.38698,126.26671
272,모구리 야영장,제주 서귀포시 성산읍 서성일로 260,33.40596,126.82169
273,모구리오름,제주특별자치도 서귀포시 성산읍 난산리 2971,33.4059591,126.821694
274,모라이,제주특별자치도 서귀포시 산록남로 (색달동),33.30114,126.4141
275,모슬봉 (모슬개오름),제주특별자치도 서귀포시 대정읍 상모리 3540-2,33.238374590640355,126.25800309462898
276,모슬포항,제주특별자치도 서귀포시 대정읍 하모리 1089-35,33.218925,126.24864
277,모지오름,제주특별자치도 서귀포시 표선면 성읍리 산 22,33.393745,126.76842
278,모진이몽돌해변,제주특별자치도 제주시 추자면 신양리 56,33.946087,126.33401
279,목시물굴,제주특별자치도 제주시 조천읍 선흘리 산26번지 일대,33.51025,126.722336
280,묘산봉 (괴살메),제주특별자치도 제주시 구좌읍 김녕리 2723,33.542805,126.744316
281,무등이왓터,제주특별자치도 서귀포시 안덕면 동광리 233-1,33.3094417,126.3521864
282,무릉곶자왈,제주특별자치도 서귀포시 대정읍 무릉리 산 1,33.291157,126.26312
283,무릉도원마을,제주특별자치도 서귀포시 대정읍 무릉리 630-4,33.2748,126.23539
284,무수천,제주특별자치도 제주시 애월읍 무수천길,33.463337,126.4466
285,"무악(개오름,킄오름,무오름)",제주특별자치도 서귀포시 안덕면 동광리 산 12,33.307552,126.36872
286,묵리마을,제주특별자치도 제주시 추자면 묵리,33.94865,126.31429
287,묵리처녀당,제주특별자치도 제주시 추자면 묵리 229-1,33.94317,126.31426
288,묵리해안쉼터,제주특별자치도 제주시 추자면 묵리 731-4,33.9449269,126.312162
289,묵리해안포구,제주특별자치도 제주시 추자면 묵리 701-5,33.94523443379174,126.31249600912327
290,문도지오름 (문돗지),제주특별자치도 제주시 한림읍 금악리 3444,33.33229622334082,126.25204764863281
291,문서프,제주특별자치도 제주시 애월읍 곽지리 1635,33.45005,126.30845
292,문석이오름,제주특별자치도 제주시 구좌읍 송당리,33.447876,126.79623
293,문섬(서귀포해양도립공원),제주특별자치도 서귀포시 칠십리로,33.226475,126.565994
294,문화공간 양,제주특별자치도 제주시 화북2동 3486-1,33.5092497,126.5618739
295,문화빳데리 충전소,제주특별자치도 서귀포시 서귀동 405-3 (지하),33.24793,126.5645823
296,문화예술마을 저지리 농어촌체험마을,제주특별자치도 제주시 한경면 저지리 1863-1,33.33264,126.25599
297,"물메 (물미, 수산봉)",제주특별자치도 제주시 애월읍 수산리 산 1-1,33.4737592,126.38468260000002
298,물영아리오름,제주특별자치도 서귀포시 남원읍 수망리 189,33.36866170302371,126.6932063814453
299,물찻오름,제주특별자치도 제주시 조천읍 교래길,33.39838650461768,126.67962656464852
300,"미악산 (턥오름, 쌀오름, 솔오름)",제주특별자치도 서귀포시 동홍동 산 7-1,33.30508705271701,126.51715030361333
301,미요캔들,제주특별자치도 제주시 이도2동 2036-1,33.4888785,126.5342351
302,미천굴,제주특별자치도 서귀포시 성산읍 온평리 1010-1,33.4036671,126.90118159999997
303,민속자연사박물관,제주특별자치도 제주시 일도2동 996-1,33.5061399,126.5316454
304,민속해안로,제주특별자치도 서귀포시 표선면 세화리 281-1,33.316566,126.84169
305,민오름(구좌읍),제주특별자치도 제주시 구좌읍 송당리 산 155,33.43717332970755,126.76182586733398
306,민오름(봉개동),제주특별자치도 제주시 칠오름길 (봉개동),33.47778961794571,126.61844660373538
307,민오름(오라동),제주특별자치도 제주시 오라2동 산 12,33.476444,126.50659
308,민오름(조천읍),제주특별자치도 제주시 조천읍 선흘리 산 141,33.47484039573691,126.49502656713867
309,믿거나말거나박물관 제주,제주특별자치도 서귀포시 색달동 2864-2,33.25108,126.412766
310,바구스서핑스쿨,제주특별자치도 제주시 이호일동 1788-6,33.4975522,126.4495561
311,바늘오름,제주특별자치도 제주시 조천읍 교래리 산 108,33.42869208511108,126.66829691376961
312,바당미술관,제주특별자치도 서귀포시 대정읍 일과리 1924-4,33.243894,126.2187834
313,바람모루,제주특별자치도 서귀포시 서호동,33.252605,126.51699
314,바이나흐튼 크리스마스 박물관,제주특별자치도 서귀포시 안덕면 안덕면 서광리 456,33.308956,126.3279
315,박물관은 살아있다,제주특별자치도 서귀포시 색달동 2629,33.255043,126.409065
316,박성내,제주특별자치도 제주시 아라2동 1370-6,33.4849094,126.5439165
317,박수기정,제주특별자치도 서귀포시 안덕면 감산리 1010,33.2371317,126.358753
318,발이오름,제주특별자치도 제주시 애월읍 어음리 산 1,33.395871963046226,126.34628767625736
319,발자국화석공원,제주특별자치도 서귀포시 대정읍 상모리 626-1,33.21723,126.29294
320,밝은오름,제주특별자치도 제주시 한림읍 금악리 산 15,33.351846983553926,126.31454141481936
321,밝은오름 (명월오름),제주특별자치도 제주시 한림읍 명월로,33.38058,126.27269
322,밝은오름 (벌근오름),제주특별자치도 서귀포시 안덕면 동광로,33.35141,126.33616
323,밧돌오름,제주특별자치도 제주시 구좌읍 송당리,33.4601919226268,126.76090399836426
324,밧세미 (밭생이),제주특별자치도 제주시 봉개동,33.48324438412855,126.59726052858889
325,방림원,제주특별자치도 제주시 한경면 용금로 864,33.336983,126.26866
326,방선문,제주특별자치도 제주시 오라2동 3322,33.45228391344958,126.51781678437806
327,방일리공원,제주특별자치도 제주시 노형동 3812-1,33.47767511759223,126.47673767354127
328,방일봉 (방일이동산),제주특별자치도 제주시 노형동,33.47579582171683,126.47358339573975
329,방주교회,제주특별자치도 서귀포시 안덕면 상천리 427,33.305073,126.387665
330,"방주오름 (방지오름, 방제오름)",제주특별자치도 제주시 한림읍 명월리 679,33.37725549706685,126.28518324340826
331,배령연대,제주특별자치도 제주시 한림읍 금능리 1649,33.387947,126.22378
332,백년초농장박물관,제주특별자치도 서귀포시 호근동 310-3,33.244675,126.54399
333,백록담,제주특별자치도 서귀포시 토평동 산 15-1,33.362293,126.53332
334,백약이오름,제주특별자치도 서귀포시 표선면 성읍리 산 1,33.437283,126.79018
335,백제사,제주시 애월읍 광령남6길 54 백제사,33.448807,126.42422
336,백제사 템플스테이,제주시 애월읍 광령남6길 54 백제사,33.448807,126.42422
337,백조일손지묘(백조일손지지),제주특별자치도 서귀포시 안덕면 사계리,33.20672,126.2813
338,밸런싱 요가,제주특별자치도 제주시 아라1동 2338-4,33.4791921,126.5431924
339,번개과학체험관,제주특별자치도 서귀포시 토평동 1799,33.28972,126.58886
340,번개레이싱,제주특별자치도 서귀포시 안덕면 서광리 산 39 항공우주박물관 3층 번개레이싱,33.3029712,126.2990679
341,번널오름 (벌판악),제주특별자치도 서귀포시 표선면 가시리 산 10-5,33.374043,126.74533
342,범섬,제주특별자치도 서귀포시 법환동,33.218575,126.517075
343,법정사,제주특별자치도 서귀포시 도순동 산 1,33.3187394,126.4848583
344,법정악(법정이),제주특별자치도 서귀포시 영실로 246 영실매표소,33.31383,126.46973
345,법화사,제주특별자치도 서귀포시 하원북로 35번길 15-28,33.265095,126.45783
346,법화사지,제주특별자치도 서귀포시 하원동 1071-1,33.2653454,126.4576828
347,법환포구,제주특별자치도 서귀포시 법환동 287-3,33.237774,126.51579
348,베릿네오름,제주특별자치도 서귀포시 중문동 2273,33.24894540638588,126.41982192341766
349,벨리타(제주베이스캠프),제주특별자치도 제주시 조천읍 중산간동로 1194,33.507736,126.69782
350,별내린전망대,제주특별자치도 서귀포시 색달동 2938-1,33.24755,126.4168
351,별도봉,제주특별자치도 제주시 선반로 (화북일동),33.51933304545922,126.55299740626833
352,별도연대,제주특별자치도 제주시 화북1동 1537,33.526237,126.56813
353,별도포구,제주특별자치도 제주시 화북1동 4269-12,33.52501,126.564995
354,별방진,제주특별자치도 제주시 구좌읍 하도리 3354,33.52612,126.88438
355,"병곳오름 (벵곳오름, 안좌오름)",제주특별자치도 서귀포시 표선면 가시리 산 8,33.368008,126.74857
356,병악현무암지대,제주특별자치도 서귀포시 안덕면 사계리,0.0,0.0
357,보롬왓,제주특별자치도 서귀포시 표선면 성읍리 3229-4,33.41367,126.75351
358,보롬이 오름,제주특별자치도 서귀포시 대정읍 무릉리 3576,33.27065,126.19232
359,"보롬이(하논, 화구구)",제주특별자치도 서귀포시 하논로 (서홍동),33.250164,126.54474
360,보목포구,제주특별자치도 서귀포시 보목동 566-3,33.239265,126.606895
361,보물섬하이킹,제주특별자치도 제주시 용담2동 2706-1,33.50585,126.510254
362,본지오름,제주특별자치도 서귀포시 성산읍 삼달리 2104-1,33.38728,126.8217
363,본태박물관,제주특별자치도 서귀포시 안덕면 상천리 380,33.303474,126.39206
364,볼레낭길,제주특별자치도 서귀포시 안덕면 감산리 1049,33.235916,126.34946
365,봉글레산,제주특별자치도 제주시 추자면 대서리 167,33.9653580947777,126.2888663269531
366,"봉아오름(봉개오름,봉아름,붉은오름)",제주특별자치도 제주시 봉개동 1804,33.49358,126.59166
367,봉쥬르봉봉,제주특별자치도 제주시 한림읍 협재리 1587,33.3783242,126.2513044
368,부대악오름,제주특별자치도 제주시 조천읍 선흘리 산 103,33.46732272173379,126.7014493729248
369,부소악 (부소오름),제주특별자치도 제주시 조천읍 교래리 산 2,33.37471268532472,126.59182300258794
370,부영컨트리클럽,제주특별자치도 서귀포시 남원읍 남조로 960 부영CC,33.358353,126.71365
371,북돌아진오름,제주특별자치도 제주시 애월읍 봉성리 산 41,33.3659432,126.35644000000002
372,북오름,제주특별자치도 서귀포시 안덕면 동광리 산 94,33.306194,126.332054
373,북오름 (鼓岳),제주특별자치도 제주시 구좌읍 덕천리 산 69,33.48679,126.73916
374,북촌국민학교,제주특별자치도 제주시 조천읍 북촌리 1212,33.547977,126.69154
375,북촌돌하르방공원,제주특별자치도 제주시 조천읍 북촌리 976,33.5387743,126.6887213
376,북촌포구,제주특별자치도 제주시 조천읍 북촌리 588,33.550053,126.69415
377,북촌환해장성,제주특별자치도 제주시 조천읍 북촌리,33.536594,126.69666
378,불카분낭 (불타버린 나무),제주특별자치도 제주시 조천읍 선흘리 1136-2,33.510834,126.70725
379,불탑사 (5층석탑),제주특별자치도 제주시 삼양일동 697,33.5291414,126.5979893
380,붉은오름(성산읍),제주특별자치도 서귀포시 성산읍 고성리 57,33.426644768409055,126.93235366307374
381,붉은오름(표선면),제주특별자치도 서귀포시 표선면 가시리 산 158,33.39796785842167,126.68012694652703
382,붉은오름자연휴양림,제주특별자치도 서귀포시 표선면 가시리 산 158,33.395905,126.669785
383,브릭캠퍼스,제주특별자치도 제주시 노형동 244-1,33.45853571541192,126.48520272519227
384,비블리아성서식물원,제주특별자치도 제주시 한림읍 상명리 1191-5,33.499622,126.53119
385,비양도,제주특별자치도 제주시 한림읍 협재리,33.408838708596456,126.22785712460939
386,비양도등대,제주특별자치도 제주시 한림읍 협재리 비양도,33.410194,126.22714
387,비양도의 비양나무자생지,제주특별자치도 제주시 한림읍 협재리 산 89,33.499622,126.53119
388,비양봉,제주특별자치도 제주시 한림읍 협재리 산 100-1,33.40889811686699,126.22619061306159
389,비자림,제주특별자치도 제주시 구좌읍 평대리 3161-1,33.491318,126.811386
390,비자림농원,제주특별자치도 제주시 조천읍 선흘리 2740,33.5142094,126.718764
391,비치미오름,제주특별자치도 제주시 구좌읍 송당리 산 255-1,33.428295,126.764145
392,빈네오름,제주특별자치도 제주시 애월읍 봉성리,33.3508,126.39407
393,빌레못동굴,제주특별자치도 제주시 애월읍 어음리 1391,33.408165,126.35178
394,쁘램 요가,제주특별자치도 제주시 연동 1372-3,33.4814949,126.490701
395,사계 용머리해안 (해산물),제주특별자치도 서귀포시 안덕면 사계리 118-3,33.2336721,126.311389
396,사계항,제주특별자치도 서귀포시 안덕면 사계리,33.237034,126.30206
397,사계해변,제주특별자치도 서귀포시 안덕면 사계리,33.23128863809759,126.31068568419187
398,사계해안도로,제주특별자치도 서귀포시 안덕면 사계리,33.21973,126.29425
399,사라봉,제주특별자치도 제주시 건입동 388,33.51839777686117,126.54391681003415
400,사라봉공원,제주특별자치도 제주시 사라봉동길 74 (건입동),33.51921,126.5473
401,사라오름,제주특별자치도 서귀포시 남원읍 신례리 산 2-1,33.371944,126.570915
402,사려니숲길,제주특별자치도 제주시 조천읍 교래리 산 137-1,33.40845,126.63976
403,사려니오름,제주특별자치도 서귀포시 남원읍 한남리 산 2-1,33.3350665992182,126.6432355849854
404,사진놀이터,제주특별자치도 제주시 애월읍 광령리 100-3,33.4642648,126.4230338
405,산굼부리,제주특별자치도 제주시 조천읍 교래리 342-2,33.4316207,126.6900058
406,산방굴사,제주특별자치도 서귀포시 안덕면 사계리 산 16,33.243855,126.31332
407,산방산,제주특별자치도 서귀포시 안덕면 사계리 산 16,33.236614,126.31289
408,산방산 랜드,제주특별자치도 서귀포시 안덕면 사계남로216번길 24-32,33.233696,126.311775
409,산방산 수국,제주특별자치도 서귀포시 안덕면 산방로,33.238625,126.31461
410,산방산 용머리해안 지질트레일,제주특별자치도 서귀포시 안덕면 사계리 981,33.235634,126.30946
411,산방산탄산온천,제주특별자치도 서귀포시 안덕면 사계북로 41번길 192,33.248665,126.29896
412,산세미오름 (삼산이오름),제주특별자치도 제주시 애월읍 고성리 126,33.4108019,126.433164
413,산양곶자왈,제주특별자치도 제주시 한경면 청수리 6,33.3125,126.25193
414,산지등대,제주특별자치도 제주시 사라봉동길 108-1 (건입동),33.52147,126.54543
415,산지천,제주특별자치도 제주시 건입동,33.513171187305915,126.52725147536319
416,산지천갤러리,제주특별자치도 제주시 일도1동 1247,33.5151351,126.5284001
417,산지항 옛터,제주특별자치도 제주시 건입동 940-3 일대,33.516888,126.53469
418,산천단,제주특별자치도 제주시 아라1동 392-3,33.44791,126.552986
419,산천단곰솔,제주특별자치도 제주시 아라일동 375-1,33.4474924,126.5550308
420,산호레저,제주특별자치도 제주시 우도면 연평리 1737-14,33.49299,126.9511
421,살핀오름,제주특별자치도 제주시 애월읍 광령리 산 183-2,33.367832,126.46191
422,삼각봉,제주특별자치도 제주시 해안동 산 220-13,33.3616666,126.5291666
423,삼다수숲길,제주특별자치도 제주시 조천읍 교래리 614,33.428387,126.67257
424,삼매봉,제주특별자치도 서귀포시 서홍동 819,33.2639577,126.5507293
425,삼밭구석 & 동광리4·3희생자위령비,제주특별자치도 서귀포시 안덕면 동광리 1425 일대,33.311443,126.330444
426,삼사석,제주특별자치도 제주시 화북1동 1380-1,33.521027,126.5741
427,삼성혈,제주특별자치도 제주시 삼성로 22,33.504166,126.5288
428,삼양 셋다리물,제주특별자치도 제주시 삼양1동 1938-9,33.5294857,126.5894095
429,삼양방파제,제주 제주시 삼양3동,33.5232424,126.5764205
430,삼양해수욕장,제주특별자치도 제주시 삼양동,33.525845,126.5863
431,삼양해안도로,제주특별자치도 제주시 삼양2동,33.52099,126.58382
432,삼의봉,제주특별자치도 제주시 아라1동 산 24-2,33.48147,126.541145
433,삼의악트레킹코스,제주특별자치도 제주시 아라동 산 24-2,33.43981,126.56199
434,삼화포구,제주특별자치도 제주시 삼양일동 1775,33.5287466,126.5891889
435,상여오름,제주특별자치도 제주시 연동 산 60-2,33.465427,126.49169
436,상추자마을길,제주특별자치도 제주시 추자도 추자면,33.947014,126.3201
437,상추자포구,제주특별자치도 제주시 추자면 대서리,33.96429,126.292984
438,상추자항,제주특별자치도 제주시 추자면 대서리 147-5,33.962449,126.2955716
439,상효원,제주특별자치도 서귀포시 상효동 산 25,33.307217,126.58609
440,새끼오름 (샛기오름),제주특별자치도 서귀포시 표선면 번영로,33.37268,126.79713
441,새별오름,제주특별자치도 제주시 애월읍 봉성리 산 59-8,33.36723,126.35711
442,새섬,제주특별자치도 서귀포시 서홍동 707-5,33.23647274214606,126.56159064340818
443,새시물,제주특별자치도 제주시 한림읍 상명리,33.36501690000001,126.2711484
444,새신오름(신서악),제주특별자치도 제주시 한경면 청수리 2661-4,33.298912,126.23928
445,새연교,제주특별자치도 서귀포시 서홍동 707-4,33.238186,126.55907
446,샘이오름,제주특별자치도 제주시 조천읍 516로,33.473995,126.66965
447,샛개오리,제주특별자치도 제주시 516로 (용강동),33.42579,126.614136
448,생각하는정원,제주특별자치도 제주시 한경면 저지리 1534,33.3257082,126.2552516
449,"생기악 (생기오름, 생길이오름)",제주특별자치도 서귀포시 남원읍 신례리 2040-5,33.30554622392984,126.64284639212644
450,생이기정,제주특별자치도 제주시 한경면 용수리 산 60,33.315594,126.16737
451,샤이니숲길,제주특별자치도 제주시 조천읍 교래리 719-10,33.4272161,126.6618459
452,서건도,제주특별자치도 서귀포시 강정동 산 1,33.23007,126.49852
453,서광리 곶자왈생태탐방로,제주특별자치도 서귀포시 안덕면 서광리,33.299107,126.31089
454,서광승마장,제주특별자치도 서귀포시 안덕면 서광리 산 50-33,33.30231,126.2879
455,서귀다원,제주특별자치도 서귀포시 상효동 산 118,33.312805,126.596466
456,서귀본향당,제주특별자치도 서귀포시 정방동,33.24646,126.565506
457,서귀포 궁도장(천지정),제주특별자치도 서귀포시 강정동 1475,33.2592301,126.4980473
458,서귀포 다이브센터,제주특별자치도 서귀포시 남원읍 하례리 64-11,33.25918,126.63975
459,서귀포 축구공원,제주특별자치도 서귀포시 신효동 910,33.2588393,126.6105252
460,서귀포 펍크롤,제주특별자치도 서귀포시 서귀동 294-20 1층 (제주약수터 앞),33.2477094,126.5617231
461,서귀포시립기당미술관,제주특별자치도 서귀포시 서홍동 621,33.244656,126.551796
462,서귀포예술의전당,제주특별자치도 서귀포시 서홍동 615,33.24523,126.55175
463,서귀포유람선,제주특별자치도 서귀포시 서홍동 707,33.239918,126.55842
464,서귀포의료원,제주특별자치도 서귀포시 동홍동 1530-2,33.2557649,126.5645342
465,서귀포자연휴양림,제주특별자치도 서귀포시 대포동 산 1-8,33.31167,126.45876
466,서귀포잠수함,제주특별자치도 서귀포시 서홍동 707-5 서귀포잠수함,33.2392231,126.5586562
467,서귀포천문과학문화관,제주특별자치도 서귀포시 1100로 506-1,33.28769,126.46199
468,서귀포층패류화석산지,제주특별자치도 서귀포시 서홍동 707,33.239625112552034,126.55798735759436
469,서귀포치유의숲,제주특별자치도 서귀포시 호근동 산4,33.292,126.52941
470,서귀포칠십리시공원,제주특별자치도 서귀포시 서홍동 576-9,33.24609,126.5538
471,서귀포항,제주특별자치도 서귀포시 서귀동 758-4,33.239174,126.56545
472,서귀포해안,제주특별자치도 서귀포시 서호동,33.23262984674832,126.49828110991211
473,서귀포호텔  카라반,제주특별자치도 서귀포시 상예동 161,33.273191,126.3947296
474,서복전시관,제주특별자치도 서귀포시 서귀동 100-2,33.2448641,126.5706551
475,서우봉,제주특별자치도 제주시 조천읍 함덕리 169-1,33.5344076,126.63424550000002
476,서커스월드공연장,제주특별자치도 서귀포시 안덕면 동광로 214,33.313927,126.34488
477,석부작박물관,제주특별자치도 서귀포시 일주동로 8941 (호근동),33.250103,126.53654
478,선녀와나무꾼,제주특별자치도 제주시 조천읍 선흘리 1997,33.47903,126.70303
479,선운정사,제주특별자치도 제주시 애월읍 봉성리 3608,33.429344,126.307205
480,선족이오름(알선족이),제주특별자치도 제주시 구좌읍 송당리 산 140-2,33.44329,126.75144
481,선흘1리,제주특별자치도 제주시 조천읍 선흘리 1207-2,33.51144,126.70519
482,설오름,제주특별자치도 서귀포시 표선면 가시리 산 1,33.3456001,126.78953590000003
483,설오름(서리오름),제주특별자치도 서귀포시 신효동,33.256275,126.60493
484,설쿰바당,제주특별자치도 서귀포시 안덕면 사계리,33.2356687,126.3125597
485,섬생이,제주특별자치도 제주시 추자면 신양리 산 87,33.939816,126.31154
486,섬속의섬우도렌트,제주특별자치도 제주시 우도면 연평리 1749,33.5033191,126.9556775
487,섭지코지,제주특별자치도 서귀포시 성산읍 고성리,33.423696011763035,126.93104600280765
488,섯알오름,제주특별자치도 서귀포시 대정읍 상모리 1618,33.20450505762628,126.28167600000006
489,성김대건신부표착기념관,제주특별자치도 제주시 한경면 용수리 4266,33.322792,126.16779
490,성널오름 (성판악),제주특별자치도 서귀포시 남원읍 신례리,33.37372,126.59245
491,성불오름,제주 제주시 구좌읍 중산간동로 2532,33.42295,126.74975
492,성산 유채꽃재배단지,제주특별자치도 서귀포시 성산읍 고성리,33.449998,126.9224688
493,성산~세화 해안도로,제주특별자치도 서귀포시 성산읍 시흥리 3,33.475853,126.90978
494,성산·오조 지질트레일,제주특별자치도 서귀포시 성산읍 오조리 68-1,33.456703,126.914986
495,성산오조리해안,제주특별자치도 서귀포시 성산읍 오조리,33.45794,126.8903
496,성산일출봉(UNESCO 세계자연유산),제주특별자치도 서귀포시 성산읍 성산리 1,33.462147,126.936424
497,성산초등학교 서청특별중대 주둔지,제주특별자치도 서귀포시 성산면 성산리 171-9,33.462696,126.931915
498,성산포항,서귀포시 성산읍 성산리 347-9,33.47211,126.9332
499,성산항,제주특별자치도 서귀포시 성산읍 성산리 347-9,33.4721117,126.9331983
500,성읍녹차마을,제주특별자치도 서귀포시 표선면 성읍리 2197-1,33.4112985,126.7819256
501,성읍랜드,제주특별자치도 서귀포시 표선면 성읍리 2045-1,33.3986187,126.7873531
502,성읍목장,제주특별자치도 서귀포시 표선면 성읍리 1734,33.404278,126.791985
503,성읍민속마을,제주특별자치도 서귀포시 표선면 성읍리 775-1,33.384453,126.800385
504,성읍승마장,제주특별자치도 서귀포시 표선면 성읍리 2045-1,33.398746,126.78733
505,성이시돌목장,제주특별자치도 제주시 한림읍 금악리 116,33.3529941,126.3139406
506,성진이오름(개오름),제주특별자치도 제주시 봉개동 산 78-2,33.420666,126.611336
507,성클라라수도원 금악성당,제주시 한림읍 금악리 373,33.348213,126.31942
508,섶섬(서귀포해양도립공원),제주특별자치도 서귀포시 마소물로,33.230137,126.5992
509,세계술박물관,제주특별자치도 서귀포시 표선면 하천리 1814-1,33.35396,126.81767
510,세계자동차 & 피아노박물관,제주특별자치도 서귀포시 안덕면 상창리 2065-4,33.283195,126.34977
511,세계조가비박물관,제주특별자치도 서귀포시 서홍동 557-1,33.2475156,126.55173
512,세리월드 테마파크,제주특별자치도 서귀포시 법환동 877,33.247314,126.51267
513,세미소(세미소오름),제주특별자치도 제주시 한림읍 금악리 365-1,33.35579013300772,126.3056150232178
514,세미오름(삼의양오름),제주특별자치도 제주시 아라동 산 24-2,33.43975,126.56141
515,세미오름(샘이오름),제주특별자치도 제주시 조천읍 대흘리 산 27-8,33.473663,126.66965
516,세인트포골프장,제주특별자치도 제주시 구좌읍 김녕리 5160-2,33.5199412,126.7412425
517,세화항,제주특별자치도 제주시 구좌읍 세화리,33.489597,126.831665
518,세화해변,제주특별자치도 제주시 구좌읍 세화리 1-1,33.52530490304795,126.86127604404146
519,세화해안도로,제주특별자치도 제주시 구좌읍 구좌로,33.527126,126.88261
520,소남머리,제주특별자치도 서귀포시 서귀동 70,33.2442936,126.5691064
521,소라의성,제주특별자치도 서귀포시 동홍동 234-8,33.2663197,126.5671727
522,소병악 (족은오름),제주특별자치도 서귀포시 안덕면 상창리 산 2-1,33.309055,126.37453
523,소수산봉(족은물뫼),제주특별자치도 서귀포시 성산읍 고성리 887,33.43848758953042,126.90182065338138
524,소암현중화기념관,제주특별자치도 서귀포시 소암로 15,33.24504,126.56752
525,소인국테마파크,제주특별자치도 서귀포시 안덕면 서광리 725,33.2904213,126.322602
526,소정방폭포,제주특별자치도 서귀포시 동홍동 234-8,33.24507449653245,126.57749384028932
527,소천지,제주특별자치도 서귀포시 보목동 1637-17,33.2412706,126.5980115
528,손방둥이 ,제주특별자치도 제주시 노형동 1553 101호 손방둥이 ,33.475807,126.4778081
529,손지오름,제주특별자치도 제주시 구좌읍 종달리 산 52,33.456177,126.81989
530,솔담현경철한의원,"제주특별자치도 제주시 노형동 919-7, 소강빌딩 3층",33.4844313,126.4807035
531,솔동산8경,제주특별자치도 서귀포시 서귀동 솔동산로,33.242863,126.563644
532,송계순집터,제주특별자치도 서귀포시 대정읍 안성리 1681-1,33.25089,126.27759
533,송당본향당,제주특별자치도 제주시 구좌읍 송당리,33.45618,126.76734
534,송당승마장,제주특별자치도 제주시 구좌읍 송당리 산 126,33.43554,126.741356
535,송령이골,제주특별자치도 서귀포시 남원읍 의귀리 1975,33.318977,126.70537
536,송악산,제주특별자치도 서귀포시 대정읍 상모리 131,33.207714,126.29099
537,송악산 진지동굴,제주특별자치도 서귀포시 대정읍 상모리,33.19995931177139,126.29322692818596
538,송악카트체험장,제주특별자치도 서귀포시 대정읍 상모리 139,33.20824,126.28927
539,송죽사터,제주특별자치도 서귀포시 대정읍 안성리,33.250626,126.27805
540,쇠머리오름(우도봉),제주특별자치도 제주시 우도면 연평리 산 23,33.49136887178609,126.96338080429075
541,쇠소깍,제주특별자치도 서귀포시 하효동 995,33.2522055,126.6231188
542,쇠소깍제트,제주특별자치도 서귀포시 하효동 999,33.250526,126.62091
543,쇠소깍해변,제주특별자치도 서귀포시 하효동,33.25114,126.62344
544,쇠와꽃 승마장,제주특별자치도 서귀포시 성산읍 고성리 354-1,33.44715,126.920296
545,수목원테마파크,제주특별자치도 제주시 연동 1320,33.47053,126.48797
546,수산저수지,제주특별자치도 제주시 애월읍 수산리 1,33.470985,126.386505
547,수악 (물오름),제주특별자치도 서귀포시 남원읍 하례리 산 10,33.3616666,126.5291666
548,수월봉,제주특별자치도 제주시 한경면 고산리 3760,33.294754,126.16345
549,수월봉 전기자전거,제주특별자치도 제주시 한경면 고산리 3674-9,33.2988231,126.16811689999997
550,수월봉(지질트레일),제주특별자치도 제주시 한경면 고산리 3762,33.293736,126.16281
551,수월이못,제주특별자치도 서귀포시 대정읍 안성리 1747,33.258373,126.27856
552,순례자의교회,제주특별자치도 제주시 한경면 용수리 2410,33.319828,126.18061
553,숫모르편백나무숲길,제주특별자치도 제주시 용강동 산 14-1,33.430923,126.595764
554,쉬리의언덕,제주특별자치도 서귀포시 색달동 3039-1,33.244597,126.406077
555,쉼터마을 유수암리 농어촌체험마을,제주특별자치도 제주시 애월읍 유수암리 1892-1,33.4413679,126.4029559
556,스위트몽키,제주특별자치도 제주시 한경면 청수리 3306-8,33.2948957,126.2358783
557,스쿠버스쿨,제주특별자치도 제주시 도두이동 1669-3,33.5089684,126.4776764
558,스페이스닷원,제주특별자치도 제주시 영평동 2181,33.4500257,126.5733138
559,스프링데일CC,제주특별자치도 서귀포시 남원읍 서성로 459번지,33.32895,126.64069
560,시민축구장,제주특별자치도 서귀포시 토평동 1128-1,33.2617646,126.5893096
561,시크릿가든촬영지,제주특별자치도 서귀포시 중문동 2563-1,33.242905,126.42043
562,신대산전망대,제주특별자치도 제주시 추자면 예초리,33.954597,126.34063
563,신대해안,제주특별자치도 제주시 추자면 예초리 77,33.952915,126.33737
564,신도포구,제주특별자치도 서귀포시 대정읍 신도리,33.282486,126.188644
565,신비의도로,제주특별자치도 제주시 1100로 2894-63,33.451225,126.487305
566,신비의도로카트체험장,제주특별자치도 제주시 노형동 187-3,33.461826,126.48475
567,신산공원,제주특별자치도 제주시 일도이동 913번지 일대,33.5053177,126.5337062
568,신산환해장성,제주특별자치도 서귀포시 성산읍 신산리,33.38476,126.86652
569,신양섭지해수욕장,제주특별자치도 서귀포시 성산읍 고성리 127-2,33.43493120372563,126.92311159018254
570,신양연안바다목장,제주특별자치도 서귀포시 성산읍,33.38106,126.876755
571,신양포구,제주특별자치도 서귀포시 성산읍 고성리,33.444576,126.9095
572,신양항(하추자항),제주특별자치도 제주시 추자면 신양리,33.935432,126.32276
573,신양해안도로,제주특별자치도 서귀포시 성산읍 신고로,33.431046,126.91553
574,신엄포구,제주특별자치도 제주시 애월읍 신엄리,33.4729053,126.3502475
575,신창~차귀해안도로,제주특별자치도 제주시 한경면 신창리 1353-1,33.33567,126.16328
576,신창리포구,제주특별자치도 제주시 한경면 신창리,33.349598,126.18087
577,신창풍차해안도로,제주특별자치도 제주시 한경면 신창리 1322-1,33.34303040868314,126.17460424075307
578,신천리 벽화마을,제주특별자치도 서귀포시 성산읍 신천리,33.3465229,126.8524043
579,신천리(용궁올레),제주특별자치도 서귀포시 표선면 신천리,33.350605,126.85242
580,신화워터파크,제주특별자치도 서귀포시 안덕면 서광리 산 24,33.3017501,126.3206458
581,신화테마파크,서귀포시 안덕면 신화역사로304번길 98,33.299404,126.3193
582,신효 생활개선회,제주특별자치도 서귀포시 신효동 240,33.2668492,126.6156145
583,신효베스트마을,제주특별자치도 서귀포시 신효동 890-2,33.26075660000001,126.6125114
584,심헌갤러리,제주특별자치도 제주시 아라1동 6075-3,33.4261379,126.5626925
585,싱게물(싱계물)공원,제주특별자치도 제주시 한경면 신창리 1322-1,33.343376,126.173996
586,쌍용굴(한림공원),제주특별자치도 제주시 한림읍 협재리 2487,33.3894949,126.2396825
587,썬플라워의원,제주특별자치도 제주시 한림읍 협재리 2838,33.3760556,126.2441268
588,아끈다랑쉬,제주특별자치도 제주시 구좌읍 세화리 2593,33.47431258110307,126.83114941586916
589,아날로그감귤밭,제주특별자치도 제주시 해안동 2463,33.45559,126.451096
590,아라리오뮤지엄동문모텔1,제주특별자치도 제주시 산지로 37-5,33.513565,126.52853
591,아라리오뮤지엄동문모텔2,제주특별자치도 제주시 산지로 23,33.51495,126.52943
592,아라리오뮤지엄탑동시네마,제주특별자치도 제주시 삼도2동 1261-8,33.51742,126.52344
593,아름다운피부과,"제주특별자치도 제주시 노형동 1296-5 명은빌딩 2,3,5,7층",33.4867644,126.4799813
594,아부오름,제주특별자치도 제주시 구좌읍 송당리 산 164-1,33.44878,126.7774
595,아이리스촬영지(하얀등대),제주특별자치도 서귀포시 표선면,33.319492,126.84776
596,아이스뮤지엄,제주특별자치도 제주시 연동 1320,33.47011,126.487595
597,아일랜드에프,"제주특별자치도 서귀포시 성산읍 성산리 347-9, 2층",33.4721117,126.9331983
598,아침미소목장,제주특별자치도 제주시 월평동 155,33.45444,126.58662
599,아침한의원 ,제주특별자치도 제주시 한림읍 한림리 1197-1,33.4120056,126.2653772
600,아프리카박물관,제주특별자치도 서귀포시 대포동 1833,33.23984,126.429146
601,아홉굿마을 낙천리 농어촌체험마을,한경면 낙천리 1916,33.499622,126.53119
602,안덕계곡,제주특별자치도 서귀포시 안덕면 감산리 359-1,33.25729495369508,126.35275401038132
603,안덕면 사계어촌계,제주특별자치도 서귀포시 안덕면 사계리 2147,33.229546651892626,126.30929693019402
604,안돌오름,제주특별자치도 제주시 구좌읍 송당리 산 66-2,33.45711281463963,126.756354971875
605,"안세미 (명도오름,明道岳)",제주특별자치도 제주시 회천동 산 1,33.47450589315294,126.61419646702882
606,알뜨르비행장,제주특별자치도 서귀포시 대정읍 상모리,33.221897,126.27413
607,"알밤(알바매기, 알밤오름)",제주특별자치도 제주시 조천읍 선흘리 산 60,33.4777041,126.7135515
608,알오름(성산읍),제주특별자치도 서귀포시 성산읍 시흥상동로,33.476498,126.89701
609,알오름(표선면),제주특별자치도 서귀포시 표선면 토산리 산 11,33.32773,126.77738
610,알작지해변,제주특별자치도 제주시 내도동 475,33.49593405066642,126.43913014627992
611,알진오름(안친오름),제주특별자치도 제주시 구좌읍 송당리 880-1,33.477615,126.78664
612,알프스승마장포니,제주특별자치도 서귀포시 표선면 성읍리 475,33.4112985,126.7819256
613,애월 하물,제주특별자치도 제주시 애월읍 애월리 1727-4,33.464873,126.3206795
614,애월 한담 카약,제주 제주시 애월읍 애월로1길 25,33.46246,126.30959
615,애월연대,제주특별자치도 제주시 애월읍 애월리 1975,33.46564,126.31318
616,애월한담해안산책로,제주특별자치도 제주시 애월읍 곽지리 1359,33.45906,126.3106
617,애월해안도로,제주특별자치도 제주시 애월읍 애월해안로,33.47822,126.36656
618,애월환해장성,제주특별자치도 제주시 애월읍 애월리 1957-1,33.4683273,126.3130121
619,액트(AC.lll.T) 볼링장,제주특별자치도 서귀포시 안덕면 서광리 산 35-16,33.3038299,126.3147293
620,약천사,제주특별자치도 서귀포시 대포동 1161,33.245766,126.44933
621,약천사 템플스테이,제주특별자치도 서귀포시 대포동 1165,33.24533,126.44967
622,어리목계곡,제주특별자치도 제주시 해안동 산 220-13,33.3967883,126.4878526
623,어린이교통공원,제주특별자치도 제주시 봉개동 산 53-19 (봉개동 4.3 공원 맞은편),33.451493,126.6234132
624,어승생,제주특별자치도 제주시 해안동 1100도로 555번지 (해안동 산220-12번지),33.397373,126.49035
625,어승생승마장 Horseland Jeju,제주특별자치도 제주시 노형동 산 14-1,33.425396,126.49087
626,어영공원,제주특별자치도 제주시 용담3동 2396 (맞은편 공원),33.51774,126.4878545
627,엄바위장승,제주특별자치도 제주시 추자면 예초리 332,33.952473,126.32899
628,엉덩물계곡,제주특별자치도 서귀포시 색달동 2889-1,33.2464,126.414536
629,엉또폭포,제주특별자치도 서귀포시 강정동 5628,33.26835517798405,126.49996875904696
630,엉알해안,제주특별자치도 제주시 한경면 고산리 3427-33,33.299570222499305,126.16742442618101
631,엉알해안산책로,제주특별자치도 제주시 한경면 고락로,33.304016,126.19735
632,에버리스 골프리조트,제주특별자치도 제주시 애월읍 평화로 1693-75,33.37819,126.36217
633,에코랜드 테마파크,제주특별자치도 제주시 조천읍 대흘리 1221-1,33.4555296,126.6681873
634,에코힐글램핑,제주특별자치도 제주시 애월읍 광령리 926,33.44969,126.440765
635,여문영아리,제주특별자치도 서귀포시 표선면 가시리 산 145,33.36798932134696,126.69242952846685
636,여미지식물원,제주특별자치도 서귀포시 색달동 2484-1,33.252617,126.41435
637,연대포구,제주특별자치도 제주시 외도2동,33.49362,126.43473
638,연미마을(오라리 방화사건 현장),제주특별자치도,33.487057,126.50736
639,연북정,제주특별자치도 제주시 조천읍 조천리 2690,33.548126,126.64038
640,연화못,제주특별자치도 제주시 애월읍 고하상로,33.446693,126.35397
641,열리해안길,제주특별자치도 서귀포시 하예동,33.240032,126.38032
642,영남동,제주특별자치도 서귀포시 영남동 224 일대,33.288883,126.496925
643,영모원,제주특별자치도 제주시 애월읍 하귀리 1130-1,33.47222,126.41828
644,영실기암,제주특별자치도 서귀포시 하원동,33.34389,126.4925
645,영주산,제주특별자치도 서귀포시 표선면 번영로,33.405403,126.79736
646,영천악(영천오름),제주특별자치도 서귀포시 상효동 산 122-8,33.28478410625129,126.60477938017584
647,예래생태체험관,제주특별자치도 서귀포시 하예동 24-1,33.2444697,126.3909781
648,예래해안도로,제주특별자치도 서귀포시 예래해안로,33.233536,126.37748
649,예술공간 이아,제주특별자치도 제주시 삼도2동 154,33.510861,126.5219859
650,예절이오름(여절악),제주특별자치도 서귀포시 남원읍 신흥리 산 18,33.3372665,126.74084760000005
651,예초리,제주특별자치도 제주시 추자도 예초리,33.947014,126.3201
652,예초리기정길,제주특별자치도 제주시 추자면 예초리 산 1,33.955803,126.33822
653,예초리포구,제주특별자치도 제주시 추자면 예초리 200-1,33.9557594,126.3324318
654,예초리해변,제주특별자치도 제주시 추자면 예초리,33.95313,126.33361
655,오라동 청보리-메밀꽃밭,제주특별자치도 제주시 오라2동 산 76,33.426865,126.505775
656,오름터 민속마을,제주특별자치도 서귀포시 표선면 성읍리 599-1,33.391445,126.80072
657,오림반,제주특별자치도 서귀포시 남원읍 신례리,33.36067,126.59719
658,오백나한,제주특별자치도 서귀포시 영실로 245 (하원동),33.340366,126.480225
659,오설록티뮤지엄,제주특별자치도 서귀포시 안덕면 서광리 1235-1,33.3063942,126.2905203
660,오조포구,제주특별자치도 서귀포시 성산읍 오조리,33.462772,126.92111
661,오현단,제주특별자치도 제주시 이도1동 1421-3,33.510136,126.52562
662,온평리 포구,제주특별자치도 서귀포시 성산읍 온평리,33.40161,126.90301
663,온평리 환해장성,제주특별자치도 서귀포시 성산읍 온평리 66-2,33.418377,126.91146
664,올레산야초,제주특별자치도 제주시 애월읍 유수암리 3040,33.4273607,126.3921659
665,올레여행자센터,제주특별자치도 서귀포시 서귀동 316-1,33.247406,126.55873
666,옷귀마테마타운,제주특별자치도 서귀포시 남원읍 한남리 1631-1,33.3402973,126.6830523
667,옹포천,제주특별자치도 제주시 한림읍 옹포리 404,33.40766,126.25742
668,옹포포구,제주특별자치도 제주시 한림읍 옹포리,33.40058,126.255325
669,와흘본향당,제주특별자치도 제주시 조천읍 와흘리 1274-1,33.50232,126.63907
670,왈종미술관,제주특별자치도 서귀포시 동홍동 281-2,33.245224,126.5739
671,왕이메오름,제주특별자치도 서귀포시 안덕면 광평리 산 79,33.340233,126.37479
672,외돌개,제주특별자치도 서귀포시 서홍동 791,33.240063,126.54573
673,용눈이오름,제주특별자치도 제주시 구좌읍 종달논길,33.45993,126.831635
674,용담 1동 벽화거리,제주특별자치도 제주시 용담1동 130-6,33.5117427,126.5170814
675,용담/용두암 해안도로,제주특별자치도 제주시 용담2동 488-9,33.51556,126.51218
676,용담레포츠공원,제주특별자치도 제주시 서해안로 580,33.517963,126.49961
677,용두암,제주특별자치도 제주시 용담이동 483,33.5149624,126.5116869
678,용두암해안도로카페거리,제주특별자치도 제주시 용담3동,33.519577,126.492165
679,용둠범목제계단길,제주특별자치도 제주시 추자면 영흥리,33.956703,126.29697
680,용머리해안,제주특별자치도 서귀포시 안덕면 사계리,33.2334272,126.313741
681,용수항,제주특별자치도 제주시 한경면 용수리,33.323494,126.16516
682,용연,제주특별자치도 제주시 동한두기길 35 (용담일동),33.51526,126.5145
683,용연카누클럽,제주특별자치도 제주시 용담2동 438,33.5156,126.5140267
684,우도 득성이코지,제주특별자치도 제주시 우도면 연평리,33.50332,126.95568
685,우도 봉수대,제주특별자치도 제주시 우도면 연평리 798,33.524593,126.952644
686,우도 비양도,제주특별자치도 제주시 우도면 연평리,33.51471143926064,126.9674228932762
687,우도(해양도립공원),제주특별자치도 제주시 우도면 연평리 904-1,33.51949,126.95109
688,우도등대,제주특별자치도 제주시 우도면 연평리 337,33.50332,126.95568
689,우도박물관,제주특별자치도 제주시 우도면 연평리 1457,33.507805,126.9532
690,우도보물섬레져,제주특별자치도 제주시 우도면 연평리 2427-3,33.508338,126.9441293
691,우도봉 ATV,제주특별자치도 제주시 우도면 연평리 343-2,33.4935234,126.9597097
692,우도봉 풍경,제주특별자치도 제주시 우도면 연평리 1,33.5043,126.95405
693,우도산호해변 홍조단괴 서빈백사,제주특별자치도 제주시 우도면 연평리 2516-2,33.5023047941127,126.94323412076267
694,우도스쿠터여행,제주특별자치도 제주시 우도면 2395-5,33.509293,126.94373
695,우도올레보트,제주특별자치도 제주시 우도면 연평리 2562-1,33.501495,126.94424
696,우도잠수함,제주특별자치도 서귀포시 성산읍 성산리 347-9,33.47211,126.9332
697,"웃밤(웃바매기,웃밤오름)",제주특별자치도 제주시 조천읍 선흘리 산 84,33.47828,126.71444
698,웃세오름(누운오름),제주특별자치도 제주시 애월읍 광령리 산 183-4,33.35865267324373,126.4607188460327
699,웃세오름(족은오름),제주특별자치도 제주시 애월읍 평화로,33.409966,126.398865
700,원당봉,제주특별자치도 제주시 삼양일동 산 1-2,33.5262509,126.59838480000008
701,원동,제주특별자치도 제주시 애월읍 소길리 1364 일대,33.402027,126.3803
702,원수악,제주특별자치도 서귀포시 안덕면 동광리 산 41,33.32239287814268,126.34516514924314
703,원앙카라반캠핑장앤야영장,제주특별자치도 서귀포시 상효동 1460,33.306381,126.5843885
704,원앙폭포,제주특별자치도 서귀포시 상효동 1463,33.30053,126.58174
705,월나봉(도래오름),제주특별자치도 서귀포시 안덕면 감산리 1148 일대,33.245667,126.3499
706,월대천,제주특별자치도 제주시 외도2동 232-1,33.4935086,126.43606160000002
707,월라봉,제주특별자치도 서귀포시 안덕면 감산리,33.248497,126.35095
708,월라봉(효돈),제주특별자치도 서귀포시 신효동,33.2680232,126.6027262
709,월라사,제주특별자치도 서귀포시 신효동 579-2,33.2687804,126.6101134
710,월령선인장군락지,제주특별자치도 제주시 한림읍 월령리 359,33.377865,126.21586
711,월령포구,제주특별자치도 제주시 한림읍 월평리,33.37863,126.21653
712,월산봉,제주특별자치도 서귀포시 강정동 1461,33.2615636,126.49447
713,월정리 카약체험장,제주특별자치도 제주시 구좌읍 월정리 1400-4,33.56346,126.78025
714,월정리해변,제주특별자치도 제주시 구좌읍 월정리 33,33.555809408904416,126.79662397696836
715,월정리해안도로,제주특별자치도 제주시 구좌읍 월정리 652-4,33.556572,126.79497
716,월평포구,제주특별자치도 서귀포시 월평동 665-4,33.2346522,126.46478890000003
717,위미리 동백나무군락,제주특별자치도 서귀포시 남원읍 위미리 903-1,33.27326,126.675934
718,위미항,제주특별자치도 서귀포시 남원읍 위미리 1757-12,33.2707092,126.6636358
719,윈드1947 카트 테마파크,제주특별자치도 서귀포시 토평동 1799,33.289717,126.5888625
720,윗세오름(웃세오름),제주특별자치도 제주시 애월읍 광령리 산 183-1,33.3701721,126.4819697
721,유건에오름,제주특별자치도 서귀포시 성산읍 난산리 2302,33.413593,126.84679
722,유민미술관,제주특별자치도 서귀포시 성산읍 고성리 21,33.429596,126.9321
723,육시우영,제주특별자치도 제주시 애월읍 하가리,33.45789,126.35208
724,이니스프리제주하우스,제주특별자치도 서귀포시 안덕면 산화역사로 425,33.30579,126.289444
725,이달봉,제주특별자치도 제주시 애월읍 봉성리 산 71-1,33.363815,126.347466
726,이덕구 산전,제주특별자치도 제주시 조천읍 교래리 산 137-24,33.384853,126.619545
727,이랜드뮤지엄,제주특별자치도 제주시 한림해안로 530,33.436172,126.27444
728,이로이로공방,제주특별자치도 제주시 구좌읍 하도리 1249,33.5157049,126.8864438
729,이상한 나라의 앨리스,제주특별자치도 서귀포시 안덕면 서광리 717-3,33.2889437,126.3218702
730,이스렁오름,제주특별자치도 제주시 애월읍 광령평화길,33.362965,126.48424
731,이중섭거리,제주특별자치도 서귀포시 서귀동 370-21,33.2476269,126.5641044
732,이중섭거주지,제주특별자치도 서귀포시 서귀동 512-1,33.2455319,126.564526
733,이중섭미술관,제주특별자치도 서귀포시 서귀동 532-1,33.2459155,126.5649489
734,이편한치과,제주특별자치도 제주시 아라일동 6035-1 반디빌딩 5층,33.4558924,126.5620301
735,이호-내도 해안도로,제주특별자치도 제주시 내도동 475,33.4961622,126.4413081
736,이호털보네배낚시,제주특별자치도 제주시 이호1동 1787,33.497173,126.44942
737,이호테우말등대,제주특별자치도 제주시 이호일동 374,33.5021596,126.4564505
738,이호테우해수욕장,제주특별자치도 제주시 이호2동 1600-1,33.4961851,126.4559518
739,익스트림제주카약올레,제주시 애월읍 애월리 2490-1,0.0,0.0
740,일출랜드,제주특별자치도 서귀포시 성산읍 삼달리 1010,33.38204,126.841965
741,임문숙 가족 헛묘,제주특별자치도 서귀포시 안덕면 동광리 807-4,33.30914,126.340614
742,입산봉(삿갓오름),제주특별자치도 제주시 구좌읍 김녕리 1033-19,33.54863,126.756676
743,자구네포구,제주특별자치도 제주시 한경면 고산리,33.309494,126.164894
744,자구리공원,제주특별자치도 서귀포시 서귀동 70,33.24342321826576,126.56944972275392
745,자리왓,제주특별자치도 제주시 애월읍 봉성리 1410 일대,33.40464,126.32806
746,"자배봉(자배오름,망오름)",제주특별자치도 서귀포시 남원읍 위미리 133-1,33.298601487606774,126.67715492963862
747,자연인,제주특별자치도 제주시 아라일동 2082-1,33.4683293,126.5385409
748,장생의 숲길,제주특별자치도 제주시 봉개동 산 78-1,33.439373,126.62845
749,장전리 벚꽃축제길,제주특별자치도 제주시 애월읍 장전리 628-3,33.44326,126.390686
750,재밋섬파크,제주특별자치도 제주시 삼도2동 108-13,33.5116,126.52267
751,저지 예술인 마을,제주특별자치도 제주시 한경면 저지리 1863-1,33.33264,126.25599
752,"저지오름(닥몰오름,새오름)",제주특별자치도 제주시 한경면 저지리 산 51,33.333008,126.25095
753,전농로 서사라문화거리,제주특별자치도 제주시 삼도2동 1230-4,33.506634,126.522415
754,전망대(종달리),제주특별자치도 제주시 구좌읍 종달리 42-5,33.50375,126.91271
755,절물오름(큰대나),제주특별자치도 제주시 명림로 584 일대,33.433804,126.62747
756,절부암,제주특별자치도 제주시 한경면 용수리 4241-1,33.32363760268729,126.16713180059435
757,점보빌리지,제주특별자치도 서귀포시 안덕면 평화로 319번길 31-11,33.275467,126.305115
758,정모시쉼터,제주특별자치도 서귀포시 서귀동 962,33.244876,126.5709843
759,정물오름,제주특별자치도 제주시 한림읍 금악리 산 52-5,33.33764,126.33035
760,정방폭포,제주특별자치도 서귀포시 동홍동 278,33.244854,126.5718
761,정의향교,제주특별자치도 서귀포시 표선면 성읍리 820-1,33.4112985,126.7819256
762,정의현 일관헌,제주특별자치도 서귀포시 표선면 성읍리 690,33.38825,126.800995
763,정주항,제주특별자치도 제주시 조천읍 함덕리,33.531406,126.66637
764,제라진 제주오프로드 사파리,제주특별자치도 제주시 조천읍 선흘리 624-4,33.4777041,126.7135515
765,제원한의원,제주특별자치도 제주시 연동 282-52 2층,33.4879178,126.4928566
766,제주 더팔팔농장,제주특별자치도 서귀포시 성산읍 신산리 1371-1,33.38571,126.871056
767,제주 메이 더 호텔 카라반빌리지,제주특별자치도 제주시 구좌읍 동복리 1652-2,33.551704,126.706764
768,제주 삼양동 유적,제주특별자치도 제주시 선사로2길 13 (삼양일동),33.523994,126.58665
769,제주 아라고나이트 온천,제주특별자치도 서귀포시 안덕면 상천리 380-7,33.303474,126.39206
770,제주 이호털보 배낚시,제주시 이호1동 1787,33.497173,126.44942
771,제주 카카오캠핑,제주특별자치도 제주시 일주서로 7867,33.494053,126.487564
772,제주 패러글라이딩 스쿨,"제주특별자치도 제주시 신선길 17-6, 일도주택3층(일도2동)",33.510384,126.53031
773,제주4·3평화공원,제주특별자치도 제주시 봉개동 237-2,33.45058,126.61812
774,제주공룡랜드,제주특별자치도 제주시 애월읍 광령평화2길 1,33.44299,126.43244
775,제주곶자왈도립공원,제주특별자치도 서귀포시 대정읍 보성리 산 1,33.282955,126.27152
776,제주교육박물관,제주특별자치도 제주시 오복 4길 25,33.49451,126.53802
777,제주국제공항(정뜨르비행장),제주특별자치도 제주시 용담2동 2002,33.50639,126.49525
778,제주국제예술센터,제주특별자치도 서귀포시 대정읍 무릉리 3296,33.27183,126.19944
779,제주국제컨벤션센터 icc,제주특별자치도 서귀포시 중문동 2700,33.241364,126.424515
780,제주국제평화센터,제주특별자치도 서귀포시 중문 관광로 227-24,33.2444,126.4219
781,제주글램핑 (무한자미향),제주특별자치도 제주시 구좌읍 덕천리 1288-2,33.48201,126.753845
782,제주기독교순례길,제주특별자치도 제주시 애월읍 금성리 436-3,33.446327,126.30273
783,제주김녕미로공원,제주특별자치도 제주시 구좌읍 김녕리 산 16,33.53653,126.77213
784,제주난타,제주특별자치도 제주시 오등동 10-1,33.445293,126.54792
785,제주농업학교 옛터,제주특별자치도 제주시 삼도1동 305-4,33.499622,126.53119
786,제주다,제주특별자치도 제주시 애월읍 납읍리 1417-4,33.4310983,126.3293946
787,제주다이브 체험다이빙,제주특별자치도 서귀포시 강정동 349-1,33.242176,126.50496
788,제주대학교 가는길,제주특별자치도 제주시 아라1동 1,33.455303,126.561615
789,제주대학교병원,제주특별자치도 제주시 아라일동 1753-3,33.467101,126.545309
790,제주도립김창열미술관,제주특별자치도 제주시 한경면 저지리 2120-82,33.3389037,126.2682351
791,제주돌마을공원,제주특별자치도 제주시 한림읍 금능리 368-2,33.3537549,126.2536813
792,제주돌문화공원,제주특별자치도 제주시 조천읍 교래리 산 95,33.4087482,126.635052
793,제주돌하르방캠핑장,제주특별자치도 제주시 한경면 청수리 2130,33.323902,126.23916
794,제주동백수목원(위미리 애기동백나무군락),제주특별자치도 서귀포시 남원읍 위미리 927,33.272907,126.67505
795,제주랜드ATV,제주특별자치도 서귀포시 표선면 성읍리 2429,33.405084,126.780344
796,제주러브랜드,제주특별자치도 제주시 연동 680-26,33.4519922,126.4890053
797,제주레이크힐스컨트리클럽,제주특별자치도 서귀포시 중문동 산 5,33.306812,126.43271
798,제주레일바이크,제주특별자치도 제주시 구좌읍 종달리 4639,33.4646743,126.8369662
799,제주레포츠랜드,제주특별자치도 제주시 조천읍 와흘리 870,33.48239,126.63868
800,제주롯데스카이힐컨트리클럽,제주특별자치도 서귀포시 색달동 100,33.2845677839787,126.40493199042976
801,제주목관아,제주특별자치도 제주시 관덕로 25,33.514103,126.52193
802,제주문예회관,제주특별자치도 제주시 일도이동 852,33.5043089,126.5353859
803,제주민속식품,제주특별자치도 제주시 구좌읍 송당리 2744-2,33.4281,126.75104
804,제주민속촌,제주특별자치도 서귀포시 표선면 민속해안로 631-34,33.32226,126.84201
805,제주바다체험장,제주특별자치도 제주시 구좌읍 동복리 608-3,33.554684,126.722336
806,제주베니스랜드,제주특별자치도 서귀포시 성산읍 난산리 2575,33.416195,126.840904
807,제주베스트힐 열기구랜드,제주시 조천읍 남조로 2109-36,33.454056,126.657524
808,제주베스트힐 펜션&글램핑,제주특별자치도 제주시 조천읍 교래리 786-31,33.4276176,126.6665803
809,제주별빛누리공원(임시휴관),제주특별자치도 제주시 오등동 10-34,33.4445482,126.5492536
810,제주불교성지 순례길 절로 가는길 - 보시의 길,제주특별자치도 제주시 애월읍 수산리 산 1-3,33.473495,126.386086
811,제주불교성지 순례길 절로 가는길 - 인욕의 길,제주특별자치도 제주시 아라1동 산 66-8,33.422096,126.55877
812,제주불교성지 순례길 절로 가는길 - 정진의 길,제주특별자치도 서귀포시 하원동 산 1-1,33.3402,126.47921
813,제주불교성지 순례길 절로 가는길 - 지계의 길,제주특별자치도 제주시 연동 69-4,33.497364,126.50008
814,제주불교성지 순례길 절로가는길 - 선정의 길,제주특별자치도 서귀포시 상효동 산 86-13,33.319935,126.59309
815,제주불빛정원 테마파크,제주특별자치도 제주시 애월읍 유수암리 1083,33.4222395,126.4092532
816,제주빅볼랜드,제주특별자치도 제주시 애월읍 어음리 산 3,33.3659432,126.35644
817,제주샘주 영농협동조합,제주특별자치도 제주시 애월읍 상가리 1997-1,33.4445996,126.3374444
818,제주성지,제주특별자치도 제주시 오현길 61,33.510372,126.52607
819,제주세계자연유산센터,제주특별자치도 제주시 조천읍 선교로 569-36(선흘리 478),33.500607,126.65108
820,제주센트럴파크,제주특별자치도 제주시 조천읍 교래리 산 56-4,33.433598,126.67473
821,제주스쿠터여행,제주시 서광로 164,33.49984,126.51392
822,제주승마공원,제주특별자치도 제주시 애월읍 녹고메길 152-1,33.405148,126.40689
823,제주시 충혼묘지 4·3추모비(박진경 추도비),제주특별자치도 제주시 노형동 산 19-2,33.412613,126.49653
824,제주신화전설탐방로,제주특별자치도 서귀포시 안덕면 서광리 산 39,33.3029712,126.2990679
825,제주실탄사격장,제주특별자치도 서귀포시 상예동 2802,33.2639753,126.3852041
826,제주아쿠아플라넷,제주특별자치도 서귀포시 성산읍 고성리 127-3,33.43237,126.928215
827,제주에코승마장(구.제주승마장),제주특별자치도 제주시 조천읍 교래리 39-3,33.4276176,126.6665803
828,제주오렌지,제주특별자치도 서귀포시 남원읍 서성로 684-5,33.32588,126.66985
829,제주오름승마랜드,조천읍 번영로 1734-15,33.4489847,126.71351189999996
830,제주올레 1-1코스,제주특별자치도 제주시 우도면 연평리 2473-1,33.505802,126.94178
831,제주올레 10-1코스,제주특별자치도 서귀포시 대정읍 가파리 298,33.170094,126.26971
832,제주올레 10코스,제주특별자치도 서귀포시 대정읍 상모리 산 2-27,33.201736,126.28757
833,제주올레 11코스,제주특별자치도 서귀포시 대정읍 동일리 3168,33.22835,126.24264
834,제주올레 12코스,제주특별자치도 서귀포시 대정읍 신도리 2883-2,33.286324,126.171646
835,제주올레 13코스,제주특별자치도 제주시 한경면 조수리 2137-2,33.32883,126.21221
836,제주올레 14-1코스,제주특별자치도 서귀포시 안덕면 서광리 산 50-22,33.304893,126.28878
837,제주올레 14코스,제주특별자치도 제주시 한림읍 월령리 산 9-15,33.371227,126.224846
838,제주올레 15-A코스,제주특별자치도 제주시 애월읍 납읍리 2695-5,33.430183,126.319374
839,제주올레 15-B코스,,33.41905,126.26263
840,제주올레 16코스,제주특별자치도 제주시 애월읍 고내리 1111-2,33.466846,126.338135
841,제주올레 17코스,제주특별자치도 제주시 도두1동 2612-1,33.505222,126.467964
842,제주올레 18-1코스,제주특별자치도 제주시 추자면 묵리 산 133,33.951923,126.30764
843,제주올레 18코스,제주특별자치도 제주시 삼양1동 1131-2,33.528675,126.596535
844,제주올레 19코스,제주특별자치도 제주시 조천읍 조천리 1142,33.52431,126.64442
845,제주올레 1코스,제주특별자치도 서귀포시 성산읍 오조리 396-1,33.47192,126.91505
846,제주올레 20코스,제주특별자치도 제주시 구좌읍 행원동길 22,33.554977,126.7993
847,제주올레 21코스,제주특별자치도 제주시 구좌읍 하도리 3204-1,33.523525,126.86349
848,제주올레 2코스,제주특별자치도 서귀포시 성산읍 고성리 2563-3,33.43367,126.8973
849,제주올레 3코스,제주특별자치도 서귀포시 표선면 하천리 87-1,33.33356,126.84455
850,제주올레 4코스,제주특별자치도 서귀포시 남원읍 태흥리 200-2,33.299873,126.75359
851,제주올레 5코스,제주특별자치도 서귀포시 남원읍 남원리 91-6,33.273167,126.70446
852,제주올레 6코스,제주특별자치도 서귀포시 보목동 1377-4,33.23712,126.59607
853,제주올레 7-1코스,제주특별자치도 서귀포시 서호동 553-1,33.267822,126.520164
854,제주올레 7코스,제주특별자치도 서귀포시 서홍동 795-1,33.240437,126.548225
855,제주올레 8코스,제주특별자치도 서귀포시 하예동 532-3,33.23657,126.38887
856,제주올레 9코스,제주특별자치도 서귀포시 안덕면 감산리 982-2,33.2371,126.36139
857,제주우리병원,제주특별자치도 제주시 이도이동 1986-3,33.4891486,126.5393964
858,제주워터월드,제주특별자치도 서귀포시 법환동 914,33.2472388,126.5092079
859,제주월드21,제주특별자치도 제주시 건입동 1442,33.51673,126.52715
860,제주월드컵경기장,제주특별자치도 서귀포시 법환동 914,33.2472388,126.5092079
861,제주유리박물관,제주특별자치도 서귀포시 중산간서로 1403,33.278397,126.370186
862,제주유리의성,제주특별자치도 제주시 한경면 저지리 3135-1,33.314835,126.273445
863,제주인디,제주특별자치도 서귀포시 성산읍 삼달리 1010,33.3833933,126.84245
864,제주절물자연휴양림,제주특별자치도 제주시 봉개동 산 78-1,33.439373,126.62845
865,제주제트,제주특별자치도 서귀포시 대포동 2184-10,33.2435151,126.4352216
866,제주조천스위스마을,제주특별자치도 제주시 조천읍 와산리 1559-18,33.4932304,126.6769248
867,제주종합경기장,제주특별자치도 제주시 오라일동 1165,33.4975278,126.5146745
868,제주쥬티클럽,제주특별자치도 서귀포시 성산읍 고성리 206-7,33.4445754,126.9095025
869,제주참숯가마찜질방,제주특별자치도 서귀포시 성산읍 삼달리 124-3,33.3822884,126.8347756
870,제주추사관,제주특별자치도 서귀포시 대정읍 안성리 1661-1,33.25022,126.27838
871,제주카약,제주특별자치도 제주시 조천읍 함덕리 207-1,33.5437998,126.6739948
872,제주카트클럽,제주특별자치도 제주시 한림읍 월림리 341-2,33.347687,126.25606
873,제주커피박물관 바움 Baum,제주특별자치도 서귀포시 성산읍 고성리 2040-1,33.4398,126.89912
874,제주컨트리클럽,제주특별자치도 제주시 영평동 2263-5,33.43041,126.58238
875,제주토종흑염소목장,제주특별자치도 서귀포시 남원읍 한남리 산 15-2,33.342895,126.6494133
876,제주특별자치도 도립미술관,제주특별자치도 제주시 1100로 2894-78,33.45921,126.48759
877,제주파인비치카라반,제주특별자치도 서귀포시 남원읍 태흥리 385,33.2922889,126.7393618
878,제주판타지월드,제주특별자치도 제주시 애월읍 소길리 155-101,33.4194584,126.383518
879,제주플래티늄카라반,제주시 애월읍 하귀미수포길 5-8,33.48435,126.40223
880,제주하늘을날다(패러글라이딩),제주특별자치도 제주시 용담일동 238-1,33.5083674,126.5152126
881,제주한라병원,제주특별자치도 제주시 연동 1963-2,33.4898195,126.4851928
882,제주항공우주박물관,제주특별자치도 서귀포시 안덕면 서광리 산 39 항공우주박물관,33.30413,126.299675
883,제주항일기념관,제주특별자치도 제주시 조천읍 조천리 1156,33.5415236,126.6425739
884,제주해양동물박물관,제주특별자치도 서귀포시 성산읍 수산리 3233,33.42965,126.855606
885,제주해양레저,제주특별자치도 서귀포시 중문동 2785-2,33.243168,126.41885
886,제주향교,제주특별자치도 제주시 용담일동 298-8,33.511157,126.5160507
887,제주허브동산,제주특별자치도 서귀포시 표선면 표선리 2608,33.3225332,126.8228665
888,제주현대미술관,제주특별자치도 제주시 한경면 저지리 2114-63,33.34026,126.2663
889,제주힐CC,제주특별자치도 제주시 용강동 산 5,33.4399611,126.6020248
890,제주힐링명상센터(무병장수테마파크),제주특별자치도 제주시 애월읍 어음리 49,33.3954954,126.3611333
891,제지기오름,제주특별자치도 서귀포시 보목동 275-1,33.242226,126.609375
892,조랑말체험공원,제주특별자치도 서귀포시 표선면 가시리 3149-33,33.3831271,126.7362573
893,조선한의원,제주특별자치도 제주시 노형동 682,33.48309800000001,126.4772312
894,조수리 농어촌체험마을,제주특별자치도 제주시 한경면 조수리,33.337276,126.22851
895,조안베어뮤지엄,제주특별자치도 서귀포시 대포동 1959,33.2402778,126.4341667
896,조은승마장,제주특별자치도 서귀포시 안덕면 동광리 897-2,33.318214,126.344894
897,조이다이브,서귀포시 서호동 728,33.26082,126.52128
898,조일구락부 옛터,제주특별자치도 제주시 삼도2동 907-11,33.511913,126.52066
899,조천만세동산,제주특별자치도 제주시 조천읍 조천리 1133-2,33.53997,126.64167
900,조천비석거리,제주특별자치도 제주시 조천읍 조천리,33.539413,126.63747
901,조천중학원 옛터,제주특별자치도 제주시 조천읍 조천리 2347-1,33.538307,126.640305
902,조천함덕해안도로,제주특별자치도 제주시 조천읍 조천리 3462,33.52976,126.6448
903,조함해안도로,제주특별자치도 제주시 조천읍 조천리 3037-3,33.543823,126.63693
904,족은노꼬메오름,제주특별자치도 제주시 애월읍 유수암리,33.409443,126.41184
905,족은바리메,제주특별자치도 제주시 애월읍 상가리 산 124,33.44355791882487,126.35334894819334
906,족은사슴이오름,제주특별자치도 서귀포시 표선면 가시리 산 87-24,33.3988071,126.7063341
907,존자암지,제주특별자치도 서귀포시 하원동 산 1-1,33.3402,126.47921
908,종남마을,제주특별자치도,33.474056,126.70725
909,종달리수국길,제주특별자치도 제주시 구좌읍 종달리 85,33.50903,126.909294
910,종달리해변,제주특별자치도 제주시 구좌읍 종달리 565-72,33.51134649489085,126.8992494054321
911,종달리해안도로,제주특별자치도 제주시 구좌읍 종달리 630-1,33.482853,126.901794
912,좌보미오름,제주특별자치도 서귀포시 표선면 성읍리 산 6,33.434856,126.80349
913,주상절리대(중문대포해안),제주특별자치도 서귀포시 중문동 2768-1,33.23834,126.42586
914,주정공장(동척회사) 옛터,제주특별자치도 제주시 건입동 918-32 일대,33.51911,126.5345
915,중문골프장,제주특별자치도 서귀포시 색달동 2101,33.252026,126.40774
916,중문관광단지,제주특별자치도 서귀포시 색달동 2812-4,33.248535,126.41039
917,중문단지 축구장,제주특별자치도 서귀포시 대포동 2492,33.2435151,126.4352216
918,중문리 신사터,제주특별자치도 서귀포시 중문동 1498,33.499622,126.53119
919,중문미로파크,제주특별자치도 서귀포시 상예동 3600,33.2631,126.38159
920,중문색달해변(해산물),제주특별자치도 서귀포시 색달동 3039-1,33.244972488701166,126.41164624741248
921,중문색달해수욕장,제주특별자치도 서귀포시 색달동 3039,33.24499,126.41159
922,중문승마공원,제주특별자치도 서귀포시 대포동 2270,33.24225,126.44533
923,중문진실캠핑장,제주특별자치도 서귀포시 중문동 2232,33.252678,126.41844
924,중문카라반,제주특별자치도 서귀포시 이어도로 81,33.24047,126.49301
925,중문컨트리클럽,제주특별자치도 서귀포시 색달동 2101,33.2499853,126.4061879
926,중앙병원,제주특별자치도 제주시 이호이동 22,33.4920436,126.4713907
927,중엄리새물,제주특별자치도 제주시 애월읍 애월리 2059-5,33.4654193,126.3169526
928,지그리오름,제주특별자치도 제주시 조천읍 교래리 산 137-1,33.42250344241872,126.62957136668706
929,지그리오름 (큰지그리),제주특별자치도 제주시 조천읍 교래리 산 119,33.445452330510456,126.64400682893074
930,지니어스 로사이,제주특별자치도 서귀포시 성산읍 고성리 21,33.429596,126.9321
931,지미봉,제주특별자치도 제주시 구좌읍 종달리 513,33.48953473617337,126.8779419370178
932,지포뮤지엄,제주특별자치도 서귀포시 성산읍 고성리 127-2,33.430576,126.92777
933,진빌레 밭담길,제주특별자치도 제주시 구좌읍 월정리 1400-14,33.5634623,126.7802471
934,진아영 할머니 집터,제주특별자치도 제주시 한림읍 월령리 381,33.376026,126.21468
935,짚라인제주,제주특별자치도 제주시 조천읍 선흘리 600,33.487106,126.706276
936,차귀도,제주특별자치도 제주시 한경면 고산리 125,33.313435,126.148796
937,차귀도글라스요트,제주특별자치도 제주시 한경면 한경해안로 156 2층,33.32392,126.16601
938,차귀도유람선,제주특별자치도 제주시 한경면 고산리 3592-1 차귀도유람선,33.3089957,126.1658373
939,참굴비조형물,제주특별자치도 제주시 추자면 묵리 산 131-1,33.952576,126.30432
940,참살이마을 명도암 농어촌체험마을,봉개동 270-3,33.461636,126.60709
941,창고천생태공원,제주특별자치도 서귀포시 안덕면 감산리 359-1,33.258415,126.35306
942,천아숲길 천아계곡,제주특별자치도 제주시 애월읍 봉성리 산 1,33.355183,126.4252
943,"천아오름(틍낭오름,天娥岳)",제주특별자치도 제주시 애월읍 광령리 604-1,33.396259762832706,126.48883615507816
944,천왕사,제주특별자치도 제주시 1100로 2528-111,33.40763,126.49491
945,천제연폭포,제주특별자치도 서귀포시 중문동 2232,33.25099,126.41689
946,천제연폭포 & 제주4.3중문면희생자위령비,제주특별자치도 서귀포시 중문동 2232,33.252678,126.41844
947,천주교 순례길 - 김기량길,제주특별자치도 제주시 조천읍 조천리 3192-1,33.532906,126.63163
948,천주교 순례길 - 김대건길,제주특별자치도 제주시 한경면 고산리 2858-2,33.301857,126.1801
949,천주교 순례길 - 신축화해길,제주특별자치도 제주시 삼도2동 114,33.51162,126.523155
950,천주교 순례길 - 하논성당길,제주특별자치도 서귀포시 서귀동 586-1,33.244183,126.56304
951,천주교길 정난주길(고통의길),제주특별자치도 서귀포시 대정읍 동일리 12,33.253555,126.26086
952,천지연기정길,제주특별자치도 서귀포시 서홍동 961-34,33.263958,126.55073
953,천지연폭포,제주특별자치도 서귀포시 서홍동 666-1,33.2447173,126.5598201
954,청수곶자왈,제주특별자치도 제주시 한경면 청수리 1571,33.305817,126.26187
955,청수성결교회,제주특별자치도 제주시 한경면 저지리 1535,33.3251954,126.2558439
956,청초밭영농조합법인,제주특별자치도 서귀포시 표선면 성읍리 2497,33.4212527,126.7816837
957,초콜릿랜드,제주특별자치도 서귀포시 색달동 2864-36,33.249115,126.41363
958,초콜릿박물관,제주특별자치도 서귀포시 대정읍 일과리 551-18,33.25704,126.23002
959,최남단 체험 감귤농장(가뫼물 농촌생태공원),제주특별자치도 서귀포시 남원읍 남원리 2019,33.290019,126.693846
960,최영장군사당,제주특별자치도 제주시 추자면 대서리 368-1,33.964085,126.295525
961,추사 유배길 - 1코스 집념의 길,제주특별자치도 서귀포시 대정읍 안성리 1661-1,33.25022,126.27838
962,추사 유배길 - 2코스 인연의 길,제주특별자치도 제주시 한경면 청수리 2186,33.319798,126.23731
963,추사 유배길 - 3코스 사색의 길,제주특별자치도 서귀포시 안덕면 사계리 3126-1,33.239353,126.28839
964,추사적거지,제주특별자치도 서귀포시 대정읍 안성리 1661-1,33.25022,126.27838
965,추억애거리,제주특별자치도 제주시 도두1동 2630-1,33.505996,126.4657678
966,추자도,제주특별자치도 제주시 추자면 추자도,33.947014,126.3201
967,추자도 숭어체험장,제주특별자치도 제주시 추자면 신양리 874-11,33.93998,126.32354
968,추자도등대,제주특별자치도 제주시 추자면 영흥리 산 26-4,33.95636,126.29741
969,추자등대,제주특별자치도 제주시 추자면 영흥리 77-3,33.9568,126.297806
970,추자연도교,제주특별자치도 제주시 추자면 영흥리 97-3,33.95409,126.3023
971,칠머리길,제주특별자치도 제주시 건입동 956-16,33.5170679,126.5359943
972,카멜리아힐,제주특별자치도 서귀포시 안덕면 상창리 271,33.289135,126.37011
973,캐릭파크,제주특별자치도 제주시 조천읍 선흘리 2013-2,33.48002,126.70165
974,캔디원,제주특별자치도 제주시 조천읍 선흘리 1776,33.4708686,126.7078957
975,캘리그라피 오월,제주특별자치도 제주시 오라2동 959-1,33.487987,126.517789
976,케이제주씨워킹,제주특별자치도 서귀포시 대정읍 하모리 646-20,33.2100551,126.2585746
977,코코몽 에코파크,제주특별자치도 서귀포시 남원읍 남원리 2380,33.27463,126.70585
978,큰넓궤,제주특별자치도 서귀포시 안덕면 동광리 90 일대,33.31075,126.357635
979,큰노꼬메오름,제주특별자치도 제주시 애월읍 유수암리 산 138,33.39231,126.41524
980,큰바리메오름,제주특별자치도 제주시 애월읍 어음리 산 3,33.3659432,126.35644000000002
981,큰사슴이오름,제주특별자치도 서귀포시 표선면 중산간동로,33.4005,126.72963
982,타보카 월정리투명카약,제주특별자치도 제주시 구좌읍 월정리 1400-4,33.56346,126.78025
983,탐라신화공원,제주특별자치도 제주시 조천읍 선흘리 1818,33.462814,126.70884
984,탑동,제주특별자치도 제주시 삼도이동 1262,33.518116,126.5241853
985,탑동해변공연장,제주특별자치도 제주시 삼도이동 1262,33.518116,126.5241853
986,태웃개,제주특별자치도 서귀포시 남원읍 위미리 70-1,33.3060336,126.6580882
987,태흥포구,제주특별자치도 서귀포시 남원읍 태흥리,33.2868,126.75014
988,터진목 & 성산면 4·3희생자 위령비,제주특별자치도 서귀포시 성산읍 고성리 224-1,33.450108,126.922455
989,테디베어뮤지엄제주,제주특별자치도 서귀포시 색달동 2889,33.25021,126.41223
990,테디베어사파리 테지움,제주특별자치도 제주시 애월읍 소길리 155-106,33.4194584,126.383518
991,테우마을 수원리 농어촌체험마을,제주시 한림읍 수원리 725-1,33.42559,126.264656
992,토끼섬,제주특별자치도 제주시 구좌읍 하도리,33.52437536995329,126.90282569589226
993,토산봉(망오름),제주특별자치도 서귀포시 표선면 토산리 산 13,33.322395,126.77359
994,토이파크,제주특별자치도 서귀포시 안덕면 동광리 383,33.319084,126.34573
995,토종닭유통특구교래삼다수마을,제주특별자치도 제주시 조천읍 교래리,33.427616,126.66658
996,톨칸이,제주특별자치도 제주시 우도면 연평리 1732-1,33.492393,126.9579
997,통오름,제주특별자치도 서귀포시 성산읍 신산리 1754-1,33.395042,126.85444
998,통일관,제주특별자치도 제주시 일도2동 168-2,33.5078895,126.5345087
999,트랜스포머 오토봇 얼라이언스,제주특별자치도 서귀포시 안덕면 서광리 산 24-15,33.3017501,126.3206458
1000,팀케이,제주특별자치도 제주시 조천읍 북촌리 450-1,33.5510953,126.6960511
1001,파군봉(바굼지오름),제주특별자치도 제주시 애월읍 상귀리 687-1,33.47847863342471,126.41245952596432
1002,"판포오름 (널개오름, 板浦岳)",제주특별자치도 제주시 한경면 판포리 934,33.357872,126.2126
1003,판포포구,제주특별자치도 제주시 한경면 판포리 2877-3,33.36537,126.19965
1004,팜파스그라스,서귀포시 표선면 성읍리 310번지,,
1005,팜핑제주,제주특별자치도 서귀포시 도순동 1303,33.2688268,126.4730466
1006,퍼시픽랜드 마린스테이지,제주특별자치도 서귀포시 색달동 2950-5,33.2444327,126.4161942
1007,퍼시픽랜드 요트투어샹그릴라,제주특별자치도 서귀포시 색달동 2950-5,33.24392479999999,126.4163378
1008,페인터즈:히어로 제주,제주특별자치도 제주시 한라대학로 38 제주한라대학교 한라아트홀 2층,33.47634,126.47637
1009,평대리불턱,제주특별자치도 제주시 구좌읍 평대리 515-67,33.532413,126.84636
1010,평대리해변,제주특별자치도 제주시 구좌읍 평대리 515-24,33.53231,126.84808
1011,평대해변,제주특별자치도 제주시 구좌읍 평대리 1994-20,33.533226,126.84065
1012,평수포구,제주특별자치도 제주시 한림읍 수원리 952,33.427593,126.263756
1013,평화통일 불사리탑,제주특별자치도 제주시 조천읍 일주동로 884,33.532516,126.63599
1014,포도갤러리 in 포도호텔,제주특별자치도 서귀포시 안덕면 상천리 산 62-3,33.315998,126.38764
1015,포레스트 사파리,제주특별자치도 제주시 조천읍 선흘리 1817,33.4777041,126.7135515
1016,포레스트 판타지아,서귀포시 안덕면 일주서로 1836,33.256805,126.32163
1017,포토갤러리 자연사랑미술관,제주특별자치도 서귀포시 표선면 가시리 1920-1,33.3537012,126.7714295
1018,폴개협동조합,제주특별자치도 서귀포시 남원읍 태흥리 1114,33.28098860000001,126.7413132
1019,표선~세화해안도로,제주특별자치도 서귀포시 표선면 표선리,33.524757,126.8606
1020,표선도서관,제주특별자치도 서귀포시 표선면 표선리 40-65,33.3237336,126.8385628
1021,표선해수욕장,제주특별자치도 서귀포시 표선면 표선리,33.32723069299215,126.83810144720462
1022,풋감마을 소길리 농어촌체험마을,애월읍 소길리 650-1,33.440056,126.380005
1023,프랑스샤르망,제주시 한림읍 명월리 384,33.3746,126.28119
1024,플레이박스VR,제주특별자치도 제주시 연동 1320,33.47011,126.487595
1025,피규어뮤지엄 제주,제주특별자치도 서귀포시 안덕면 상창리 1875-8,33.2819208,126.35554720000005
1026,핀크스 골프클럽,제주특별자치도 서귀포시 안덕면 상천리 산 62-3,33.3159979,126.387643
1027,하고수동해변,제주특별자치도 제주시 우도면 연평리,33.514126,126.958595
1028,하논마르,제주특별자치도 서귀포시 서홍동 1003,33.252937,126.54583
1029,하늘여행 행글라이더체험장,제주특별자치도 서귀포시 안덕면 서광리 775,33.288451821204305,126.31655923223263
1030,하도리 철새도래지,제주특별자치도 제주시 구좌읍 하도리 53-2,33.51021,126.896255
1031,하도해변,제주특별자치도 제주시 구좌읍 해맞이해안로,33.5183,126.9017
1032,하멜기념비,제주특별자치도 서귀포시 안덕면 사계리 112-3,33.23286,126.314064
1033,하멜상선전시관,제주특별자치도 서귀포시 안덕면 사계리 116-7,33.23343,126.31374
1034,하모씨워킹,제주특별자치도서귀포시대정읍최남단해안로 130,33.207684,126.2912
1035,하예포구(예래포구),제주특별자치도 서귀포시 하예동,33.23357,126.374916
1036,한국건강관리협회제주특별자치도부,제주특별자치도 제주시 연동 1375,33.48212170000001,126.4933841
1037,한국병원,제주특별자치도 제주시 삼도일동 518,33.5003822,126.5167845
1038,한국야구명예전당(야구박물관),제주특별자치도 서귀포시 강정동 1481-3,33.26081,126.49815
1039,한남의숙터,제주특별자치도 서귀포시 대정읍 추사로,33.251087,126.27711
1040,한담해변,제주특별자치도 제주시 애월읍 애월리 2533-1,33.46004181697696,126.31054239947503
1041,한동환해장성,제주특별자치도 제주시 구좌읍 한동리 1694,33.551777,126.82788
1042,한라감귤체험농원,제주특별자치도 서귀포시 성산읍 수산리 735,33.442627,126.88461
1043,한라산 아래 첫 마을,제주특별자치도 서귀포시 안덕면 광평리 195-2,33.3295908,126.381331
1044,한라산 청정촌,제주특별자치도 서귀포시 중산간서로 740(중문동),33.2632854,126.4361834
1045,한라산국립공원,제주특별자치도 제주시 1100로 2070-61,33.36132,126.54195
1046,한라산소주공장,제주특별자치도 제주시 한림읍 옹포리 396,33.4073649,126.2563337
1047,한라산어리목코스,제주특별자치도 제주시 1100로 2070-61,33.39223,126.49457
1048,한라산영실코스,제주특별자치도 서귀포시 하원동 산 1-1,33.3402,126.47921
1049,한라생태숲,제주특별자치도 제주시 용강동 산 14-1,33.430924,126.595761
1050,한라수목원,제주특별자치도 제주시 수목원길 72,33.469604,126.4918
1051,한라승마장,제주특별자치도 서귀포시 안덕면 동광리 산 32-2,33.323906,126.35258
1052,한림공원,제주특별자치도 제주시 한림읍 협재리 2487,33.3879944,126.2397837
1053,한림바다체험마을,제주특별자치도 제주시 한림읍 한수리 879-30,33.4197809,126.2628316
1054,한림항,제주특별자치도 제주시 한림읍 대림리 2019-17,33.419075,126.26264
1055,한림해안도로,제주특별자치도 제주시 한림읍 귀덕리,33.435574,126.26823
1056,한모살 (표선백사장),제주특별자치도 제주시 표선면 표선리,33.328445,126.83669
1057,한울랜드,제주특별자치도 제주시 구좌읍 덕천리 766,33.518837,126.73904
1058,함덕백사장 & 서우봉,제주특별자치도 제주시 조천읍 함덕리 1008-1,33.54379,126.668846
1059,함덕야영장,제주특별자치도 제주시 조천읍 함덕리 1008,33.544018,126.66839
1060,함덕카페거리,제주특별자치도 제주시 조천읍 함덕리,33.54264,126.66915
1061,함덕해수욕장,제주특별자치도 제주시 조천읍 함덕리 1008-1,33.54379,126.668846
1062,항파두리항몽유적지,제주특별자치도 제주시 애월읍 상귀리 1012,33.452126,126.407455
1063,해거름전망대,제주특별자치도 제주시 한경면 판포리 1608-1,33.37016,126.20664
1064,해녀박물관,제주특별자치도 제주시 구좌읍 상도리 3204-1,33.5242827,126.8629097
1065,해녀의 태왁,제주특별자치도 제주시 구좌읍 김녕리 904-4,33.5582139,126.7373381
1066,해맞이해안로,제주특별자치도 제주시 구좌읍 김녕리,33.558674,126.79477
1067,해비치컨트리클럽제주,제주특별자치도 서귀포시 남원읍 신흥리 산 30,33.342895,126.6494133
1068,해적잠수함,제주특별자치도 제주시 한경면 고산리 3615-6,33.308254,126.1647
1069,해품은체험농장,제주특별자치도 서귀포시 성산읍 수산리 225,33.443462,126.89263
1070,해피맘하우스,제주특별자치도 제주시 애월읍 고내리 448-2,33.4488627,126.3042586
1071,핸즈웍스,제주특별자치도 제주시 한림읍 귀덕리 756,33.4376238,126.2970018
1072,햇살정원 제주캠핑,제주특별자치도 서귀포시 보목동 526,33.240427,126.6083091
1073,행원육상양식단지,제주특별자치도 제주시 구좌읍 행원리 1-33,33.5595727,126.8162673
1074,허브동산 미디어 파사드 (media facade),제주특별자치도 서귀포시 표선면 돈오름로 170,33.32985,126.81486
1075,헬로키티아일랜드,제주특별자치도 서귀포시 안덕면 상창리 1963-2,33.29015,126.3522
1076,현사포구,제주특별자치도 제주시 이호1동,33.50021,126.45968
1077,현의합장묘역,제주특별자치도 서귀포시 남원읍 수망리 893,33.350883,126.69801
1078,협자연대,제주특별자치도 서귀포시 성산읍 고성리 57-1,33.426456,126.932304
1079,협재굴(한림공원),제주특별자치도 제주시 한림읍 협재리 2487,33.3894949,126.2396825
1080,협재포구,제주특별자치도 제주시 한림읍 협재리,33.39929,126.24321
1081,협재해수욕장,제주특별자치도 제주시 한림읍 협재리 2447,33.393845,126.239716
1082,형제섬,제주특별자치도 서귀포시 안덕면 사계리 산 44,33.209785,126.31431
1083,형제해안도로,제주특별자치도 서귀포시 대정읍 상모리 1649-1,33.201102619182144,126.26553679882818
1084,형제해안로전망대,제주특별자치도 서귀포시 안덕면 사계리 2147-13,33.227848,126.30391
1085,혼인지,제주특별자치도 서귀포시 성산읍 환해장성로 549,33.414932,126.894104
1086,화북비석거리,제주특별자치도 제주시 일주동로,33.52072,126.56066
1087,화북환해장성,제주특별자치도 제주시 화북동,33.520233,126.56553
1088,화순곶자왈생태탐방숲길,제주특별자치도 서귀포시 안덕면 화순리 2045,33.264614,126.33123
1089,화순금모래해수욕장,제주특별자치도 서귀포시 안덕면 화순리 776-7,33.239579490694844,126.33383992114864
1090,화순금모래해수욕장담수수영장,제주특별자치도 서귀포시 안덕면 화순리 776-8,33.239594,126.33577
1091,화순리 유채꽃길,제주특별자치도 서귀포시 안덕면 화순리 1230-4,33.25176,126.33404
1092,화조원,제주특별자치도 제주시 애월읍 납읍리 58,33.4113881,126.3717903
1093,환상숲 곶자왈공원,제주특별자치도 제주시 한경면 녹차분재로 594-1,33.322342,126.26323
1094,황금굴(한림공원),제주특별자치도 제주시 한림읍 협재리 2487,33.3879944,126.2397837
1095,황우럭만화천국사회적협동조합,제주특별자치도 제주시 한림읍 한림리 1055,33.41427,126.26667
1096,황우지해안,제주특별자치도 서귀포시 서홍동 766-1,33.241566,126.54981
1097,황우지해안 열두굴,제주특별자치도 서귀포시 서홍동 764-1,33.23915,126.54786
1098,효명사,제주특별자치도 서귀포시 남원읍 하례리 산 45,33.3420367,126.5884214
1099,후포해변,제주특별자치도 제주시 추자면 대서리 267,33.96236823562007,126.28940276875608
1100,휴림,제주특별자치도 제주시 애월읍 광령리 2873-6,33.3701721,126.4819697
1101,휴애리 자연생활공원,제주특별자치도 서귀포시 남원읍 신례리 2081,33.30854,126.63448
1102,힐링카약파크비체올린,제주시 한경면 판포리 725번지,33.35901,126.21184
